id,name,city,country,latitude,longitude,sports
place_0,Academia Club A Fitness,Rio de Janeiro,BR,-22.970587,-43.701266,Gymnastics Center
place_1,Academia Amplitude,Unknown,BR,-22.969378,-43.698038,Gym and Studio
place_10,Campo do Aníbal,Rio de Janeiro,BR,-22.972049,-43.638086,Soccer Field
place_100,Espaço Você,Rio de Janeiro,BR,-22.996194,-43.409739,Gym and Studio
place_1000,Bar Papo de Esquina,Unknown,BR,-22.844188,-43.311861,Sports Bar
place_1001,Clube GRAG,Rio de Janeiro,BR,-22.824181,-43.317464,Sports Bar
place_1002,Chap London,Unknown,BR,-22.840572,-43.304374,"Sports Bar, Restaurant"
place_1003,Academia Top Fit,Rio de Janeiro,BR,-22.841969,-43.26709,Gym and Studio
place_1004,Academia Animal King,Rio de Janeiro,BR,-22.865025,-43.30195,Gym and Studio
place_1005,Academia New Corpore,Rio de Janeiro,BR,-22.839587,-43.298078,Gym and Studio
place_1006,Academia TOP FIT,Rio de Janeiro,BR,-22.851016,-43.254763,Gym and Studio
place_1007,Arte do Corpo Academia,Rio de Janeiro,BR,-22.829968,-43.287311,Gym and Studio
place_1008,Academia Cripal,Rio de Janeiro,BR,-22.845841,-43.261663,Education
place_1009,Academia Tribe Gym,Rio de Janeiro,BR,-22.849793,-43.269723,Gym and Studio
place_101,Academia Espaço Físico,Rio de Janeiro,BR,-22.968727,-43.413903,Gym and Studio
place_1010,Academia R2 Fitness,Rio de Janeiro,BR,-22.852039,-43.266014,Gym and Studio
place_1011,Academia Adrenalina Fitness Ltda,Rio de Janeiro,BR,-22.834501,-43.27312,Gym and Studio
place_1012,Quadra Azul,Rio de Janeiro,BR,-22.848766,-43.262549,Soccer Field
place_1013,Academia Corpo Perfeito,Rio de Janeiro,BR,-22.81677,-43.31346,Pilates Studio
place_1014,Academia Evolution,Rio de Janeiro,BR,-22.845604,-43.338864,Gym and Studio
place_1015,Academia R2 Fitness,Rio de Janeiro,BR,-22.854297,-43.260486,Gym and Studio
place_1016,Academia KF,Rio de Janeiro,BR,-22.892482,-43.300728,Gym and Studio
place_1017,Top Kart Indoor,Rio de Janeiro,BR,-22.878752,-43.270731,Race Track
place_1018,Adidas Outlet Store,Rio de Janeiro,BR,-22.878688,-43.272047,Sporting Goods Retail
place_1019,Studio de Dança Ra'idah,Rio de Janeiro,BR,-22.842903,-43.335412,Dance Studio
place_102,Piscina do condomínio Ventanas,Rio de Janeiro,BR,-22.999692,-43.417664,Swimming Pool
place_1020,Academia Up Fit,Rio de Janeiro,BR,-22.839264,-43.276558,Gym and Studio
place_1021,Academia Folego & Força,Rio de Janeiro,BR,-22.888249,-43.323207,Gym and Studio
place_1022,River Futebol Clube,Rio de Janeiro,BR,-22.888856,-43.30522,Soccer Field
place_1023,Vila Olímpica do Encantado,Rio de Janeiro,BR,-22.89465,-43.300153,"Sports and Recreation, Playground"
place_1024,Clube dos Suboficiais e Sargentos da Aeronáutica,Rio de Janeiro,BR,-22.818168,-43.221865,Soccer Field
place_1025,Ascaer,Rio de Janeiro,BR,-22.819534,-43.225661,Sports Bar
place_1026,Bar do Jorginho,Rio de Janeiro,BR,-22.847966,-43.25124,Sports Bar
place_1027,Academia Oficina do Corpo,Unknown,BR,-22.849054,-43.245621,Gym and Studio
place_1028,Academia Z2 Fitness,Ramos,BR,-22.843145,-43.250184,Gym and Studio
place_1029,Campo de Futebol,Rio de Janeiro,BR,-22.848741,-43.237711,Soccer Field
place_103,Muay Thai Espigão,Rio de Janeiro,BR,-22.972333,-43.412673,Sports and Recreation
place_1030,Academia Estação do Corpo,Rio de Janeiro,BR,-22.861233,-43.246352,"Education, Gym and Studio"
place_1031,Mello Tênis Clube,Rio de Janeiro,BR,-22.837622,-43.293014,Sports and Recreation
place_1032,Piscina-ICR,Unknown,BR,-22.837843,-43.242844,Swimming Pool
place_1033,Centro de promoção da saúde  do CEPE Fundão,Rio de Janeiro,BR,-22.854188,-43.23389,Gym and Studio
place_1034,Nação Rubro Negra,Rio de Janeiro,BR,-22.815415,-43.246385,Sporting Goods Retail
place_1035,Complexo Sócio Esportivo Délio Jardim de Mattos,Rio de Janeiro,BR,-22.814894,-43.236588,Soccer Field
place_1036,ACT - Academia Carioca de Tiro,Mesquita,BR,-22.819061,-43.221636,Gun Range
place_1037,Academia To's Magro,Rio de Janeiro,BR,-22.813825,-43.229727,Gym and Studio
place_1038,Grupo Familia do Eng. da Rainha,Unknown,BR,-22.869235,-43.293145,Soccer Field
place_1039,Planeta dos Esportes - Ramos,Rio de Janeiro,BR,-22.852828,-43.25581,"Arts and Entertainment, Sports Bar"
place_104,Quadra de tênis - London Green,Miguel Pereira,BR,-22.991764,-43.432088,Tennis Court
place_1040,Bar do Xororó,Rio de Janeiro,BR,-22.837394,-43.276576,Sports Bar
place_1041,Jmix Sport,Rio de Janeiro,BR,-22.882715,-43.249939,Clothing Store
place_1042,ZN Clube,Rio de Janeiro,BR,-22.82648,-43.284844,Sports Bar
place_1043,Body Place Academia,Rio de Janeiro,BR,-22.813056,-43.203994,Martial Arts Dojo
place_1044,Associação Crista de Mocos do Rio de Janeiro,Rio de Janeiro,BR,-22.825076,-43.172105,Education
place_1045,Smart Fit,Rio de Janeiro,BR,-22.80592,-43.209406,Gym and Studio
place_1046,Caminhada Praia da Bica,Rio de Janeiro,BR,-22.817449,-43.200586,"Brazilian Restaurant, Hiking Trail, Sports and Recreation"
place_1047,Ciclista da Ilha,Rio de Janeiro,BR,-22.819197,-43.175415,Bicycle Store
place_1048,ProQuality Fitness Center,Rio de Janeiro,BR,-22.808022,-43.211588,Gym and Studio
place_1049,Vila Olímpica do Caju,Rio de Janeiro,BR,-22.880206,-43.228177,Sports and Recreation
place_105,Academia Rota do Sol,Rio de Janeiro,BR,-22.967364,-43.411549,Gym and Studio
place_1050,ACM - Musculação,Rio de Janeiro,BR,-22.824485,-43.172969,Gym and Studio
place_1051,Natação - ACM,Rio de Janeiro,BR,-22.825076,-43.172105,Swim School
place_1052,Estande de Tiro PCERJ,Unknown,BR,-22.874517,-43.228982,Gun Range
place_1053,Seninha,Rio de Janeiro,BR,-22.882588,-43.217508,Gun Range
place_1054,E.S Training - anexo 2,Unknown,BR,-22.820895,-43.173323,Sports and Recreation
place_1055,Campo da Toca,Rio de Janeiro,BR,-22.868081,-43.238362,Soccer Field
place_1056,Academia Brandel'hil,Unknown,BR,-22.869896,-43.237966,Gym and Studio
place_1057,Cedis - Ambep,Rio de Janeiro,BR,-22.891592,-43.214461,"Arts and Entertainment, Swimming Pool"
place_1058,Academia Corpo e Movimento,Unknown,BR,-22.873601,-43.237992,Gym and Studio
place_1059,Academia Fit Center,Rio de Janeiro,BR,-22.808218,-43.183809,Gym and Studio
place_106,Body Town,Rio de Janeiro,BR,-22.973882,-43.365352,Gym and Studio
place_1060,J Soares Academia,Rio de Janeiro,BR,-22.807751,-43.183484,Trade School
place_1061,Nocaute Sport Bar,Rio de Janeiro,BR,-22.818954,-43.199932,Sports Bar
place_1062,Academia Mocanguê,Unknown,BR,-22.874521,-43.134141,Gym and Studio
place_1063,Ballet Simone Falcão,Niterói,BR,-22.884836,-43.122531,Gym and Studio
place_1064,Academia Força & Forma,Niterói,BR,-22.885623,-43.122737,Gym and Studio
place_1065,sam`s club - Automodelismo,Unknown,BR,-22.858737,-43.102403,Race Track
place_1066,Bora Fitness,Unknown,BR,-22.838148,-43.065723,Gym and Studio
place_1067,Academia Stronger,São Gonçalo,BR,-22.833304,-43.079095,Gym and Studio
place_1068,Academia by training,São Gonçalo,BR,-22.842089,-43.073344,Gym and Studio
place_1069,Academia Art do Corpo,São Gonçalo,BR,-22.841058,-43.078149,Gym and Studio
place_107,Mini Autódromo RioNitro,Rio de Janeiro,BR,-22.973914,-43.364098,Race Track
place_1070,Top Fitness,São Gonçalo,BR,-22.835622,-43.059893,Gym and Studio
place_1071,Zip Fitness,Unknown,BR,-22.844111,-43.089825,Gym and Studio
place_1072,Inove Academia,São Gonçalo,BR,-22.828575,-43.071268,Gymnastics
place_1073,Dançatriz Escola de Dança,São Gonçalo,BR,-22.820543,-43.063739,Dance Studio
place_1074,Embaixadores Social Clube,São Gonçalo,BR,-22.828502,-43.062171,Soccer Field
place_1075,Academia By Corpo,São Gonçalo,BR,-22.851932,-43.092708,Yoga Studio
place_1076,Estúdio de Pilates Movimente-se,São Gonçalo,BR,-22.845297,-43.091924,Pilates Studio
place_1077,Campo do Zaff,Unknown,BR,-22.861315,-43.1019,Sports and Recreation
place_1078,Academia Biorritmo,São Gonçalo,BR,-22.840898,-43.094391,Gym and Studio
place_1079,Thula Academia,Unknown,BR,-22.840649,-43.090183,Swim School
place_108,Muiloko Skate Shop  Union Mall,Rio de Janeiro,BR,-22.968762,-43.36642,Skate Store
place_1080,Academia Atitude Certa,São Gonçalo,BR,-22.84971,-43.07804,Gym and Studio
place_1081,Claudio Martins Judo e Jiu Jitsu,Niterói,BR,-22.87038,-43.104373,Martial Arts Dojo
place_1082,Escola de Lutas,Unknown,BR,-22.881902,-43.09254,Martial Arts Dojo
place_1083,Show de Bola,Niterói,BR,-22.882538,-43.085717,"Cafe, Coffee, and Tea House, Soccer Field"
place_1084,Centro Pro Cubango,Niterói,BR,-22.889948,-43.092479,"Charity, Soccer Field"
place_1085,ABX Fitness,Niterói,BR,-22.888001,-43.087728,Gym and Studio
place_1086,Cantina do Fabiano,São Gonçalo,BR,-22.825771,-43.077348,Sports Bar
place_1087,Posto Segato,Unknown,BR,-22.827413,-43.06133,"Sports Bar, Fuel Station"
place_1088,Serradão,Unknown,BR,-22.830607,-43.057516,Sports Bar
place_1089,Academia Água & Cia,São Gonçalo,BR,-22.83372,-43.042222,Gym and Studio
place_109,Maraca Sport Bar,Rio de Janeiro,BR,-23.000928,-43.396492,Sports Bar
place_1090,Academia Stronger,São Gonçalo,BR,-22.818006,-43.018706,Gym and Studio
place_1091,Academia Body Strong,Unknown,BR,-22.85914,-43.028144,Gym and Studio
place_1092,Academia Halternativa - Sao Goncalo,São Gonçalo,BR,-22.823675,-43.044933,Gym and Studio
place_1093,Ballet Claudia Araújo,São Gonçalo,BR,-22.825095,-43.047915,"Trade School, Dance Studio"
place_1094,Academia Halternativa - Sao Goncalo,São Gonçalo,BR,-22.825819,-43.04812,Gym and Studio
place_1095,Academia Estilo de Vida,São Gonçalo,BR,-22.813394,-43.038607,Gym and Studio
place_1096,FoX Futebol Society,São Gonçalo,BR,-22.82278,-43.042529,Soccer Field
place_1097,Academia Power Good,São Gonçalo,BR,-22.837601,-43.01277,Gym and Studio
place_1098,Centauro,São Gonçalo,BR,-22.820882,-43.046436,Sporting Goods Retail
place_1099,Centauro,São Gonçalo,BR,-22.813099,-43.070337,"Landmarks and Outdoors, Clothing Store, Shopping Mall, Sporting Goods Retail"
place_11,PaintBall Club Campestre,Rio de Janeiro,BR,-22.969037,-43.647733,Paintball Field
place_110,Bar Lac Premier,Unknown,BR,-23.004711,-43.371993,Sports Bar
place_1100,Recanto do Caranguejo,São Gonçalo,BR,-22.820905,-43.037278,"Sports Bar, Restaurant"
place_1101,Nike Factory Store,São Gonçalo,BR,-22.813368,-43.071034,Sporting Goods Retail
place_1102,Clube Esportivo Mauá,São Gonçalo,BR,-22.82101,-43.040919,Sports and Recreation
place_1103,Niteroikart,São Gonçalo,BR,-22.862471,-43.033429,Race Track
place_1104,Arena Paintball Niterói,São Gonçalo,BR,-22.869011,-43.039668,Paintball Field
place_1105,Academia Power Life,Niterói,BR,-22.876541,-43.045491,Gym and Studio
place_1106,Predadores Paintball,Unknown,BR,-22.841729,-43.020645,Paintball Field
place_1107,Pro Limits,Unknown,BR,-22.81945,-43.033041,Yoga Studio
place_1108,Campo da Chumbada,São Gonçalo,BR,-22.822414,-43.025459,Soccer Field
place_1109,Academia Bodylife,São Gonçalo,BR,-22.83162,-43.015201,"Gym and Studio, Arts and Entertainment"
place_111,Banca Espaço Cultural,Rio de Janeiro,BR,-22.968267,-43.390997,Newsstand
place_1110,Box EXP,São Gonçalo,BR,-22.815257,-43.040281,Gym and Studio
place_1111,Complexo Esportivo Vila Olímpica - Fazenda Colubandê,São Gonçalo,BR,-22.842205,-43.010996,Sports and Recreation
place_1112,Academia Saúde Corpo,São Gonçalo,BR,-22.835674,-43.012536,Gym and Studio
place_1113,Quadra de Futebol Society,São Gonçalo,BR,-22.851202,-43.008323,Soccer Field
place_1114,Academia HaterNativa Alcântara 3,São Gonçalo,BR,-22.827784,-43.013856,Gym and Studio
place_1115,Academia Hot Fitness,São Gonçalo,BR,-22.847162,-43.006283,Gym and Studio
place_1116,Shaolin Kung Fu,São Gonçalo,BR,-22.810676,-43.039609,Sports and Recreation
place_1117,Academia Magger,São Gonçalo,BR,-22.825081,-42.986632,Gym and Studio
place_1118,Smart Fit,São Gonçalo,BR,-22.822619,-42.99868,Gym and Studio
place_1119,New Body Fitness Center,São Gonçalo,BR,-22.823406,-42.996127,Gym and Studio
place_112,Lá&Cá,Unknown,BR,-22.971465,-43.372131,Sports Bar
place_1120,Stilo e Ação Academia de Ginástica,São Gonçalo,BR,-22.805337,-43.001723,Gym and Studio
place_1121,Academia HR,Unknown,BR,-22.813936,-42.998601,Gym and Studio
place_1122,Academia Halternativa Alcântara,Unknown,BR,-22.82194,-43.001989,Gym and Studio
place_1123,Academia Estação Fit,São Gonçalo,BR,-22.875176,-43.022374,Gym and Studio
place_1124,Piscina,Niterói,BR,-22.874886,-43.032154,Swimming Pool
place_1125,Physicos Gym,Unknown,BR,-22.87891,-43.027983,Gym and Studio
place_1126,Academia AME Fitness,São Gonçalo,BR,-22.815709,-43.020722,Sports and Recreation
place_1127,Academia Máximo Fitness,São Gonçalo,BR,-22.813543,-43.023933,Gym and Studio
place_1128,Academia Power Life,Unknown,BR,-22.872727,-43.041951,Gym and Studio
place_1129,Bar Pá e Bola,São Gonçalo,BR,-22.817993,-43.017891,Sports Bar
place_113,Decathlon,Rio de Janeiro,BR,-22.998965,-43.335156,Sporting Goods Retail
place_1130,Ginásio Esporte Ufrrj,Seropédica,BR,-22.771102,-43.691085,Basketball Court
place_1131,Quadra UFRRJ,Seropédica,BR,-22.770862,-43.690577,Sports and Recreation
place_1132,Body Company,Seropédica,BR,-22.8029,-43.645346,Gym and Studio
place_1133,Explosão Academia,Seropédica,BR,-22.797974,-43.642341,Gymnastics Center
place_1134,CT - Centro de Treinamentos Celso Gol,Seropédica,BR,-22.767295,-43.638516,Soccer Field
place_1135,Academia Camarte Fitnes S,Nova Iguaçu,BR,-22.802224,-43.586579,Gym and Studio
place_1136,BIG Monster GYM,Nova Iguaçu,BR,-22.823626,-43.596884,Gym and Studio
place_1137,Academia Fórmula Fitness,Nova Iguaçu,BR,-22.825203,-43.597173,Gym and Studio
place_1138,Academia Saúde Em Forma,Nova Iguaçu,BR,-22.828526,-43.603274,Gym and Studio
place_1139,Academia Fitness by Fitness,Nova Iguaçu,BR,-22.831145,-43.603652,Gym and Studio
place_114,Bodytech,Rio de Janeiro,BR,-23.00998,-43.342323,Gym and Studio
place_1140,Ebenegol,Nova Iguaçu,BR,-22.788645,-43.548752,Soccer Field
place_1141,Campo Sintético do Imperial,Nova Iguaçu,BR,-22.787714,-43.545594,Soccer Field
place_1142,Bar do Litrão,Nova Iguaçu,BR,-22.786867,-43.546451,Sports Bar
place_1143,Academia attitude Fitness,Nova Iguaçu,BR,-22.783332,-43.543481,Gym and Studio
place_1144,Sitio aconchego da madame,Nova Iguaçu,BR,-22.773869,-43.539238,Swimming Pool
place_1145,Academia Nakayoshi,Nova Iguaçu,BR,-22.774058,-43.528395,Martial Arts Dojo
place_1146,Quadra Poliesportiva,Nova Iguaçu,BR,-22.765922,-43.558042,"Basketball Court, Soccer Field"
place_1147,R7 academias,Nova Iguaçu,BR,-22.77334,-43.524364,Gym and Studio
place_1148,Academia Top Fitness,Nova Iguaçu,BR,-22.772029,-43.52358,Gym and Studio
place_1149,Academia Atitude do Corpo 3A,Nova Iguaçu,BR,-22.769782,-43.525845,Gym and Studio
place_115,Bodytech,Rio de Janeiro,BR,-23.002414,-43.321187,Gym and Studio
place_1150,Quadra Esportiva Centro Educacional Valverde,Nova Iguaçu,BR,-22.769275,-43.525833,Soccer Field
place_1151,Academia R7 Fitness,Nova Iguaçu,BR,-22.771685,-43.522192,Gym and Studio
place_1152,Academia Popstar Clube,Nova Iguaçu,BR,-22.769541,-43.524147,Gym and Studio
place_1153,Top Fitness,Nova Iguaçu,BR,-22.769154,-43.524388,Gymnastics Center
place_1154,Academia Extreme Gym,Nova Iguaçu,BR,-22.767841,-43.518838,Gym and Studio
place_1155,Academia Integração Fitness,Nova Iguaçu,BR,-22.768359,-43.507502,Gym and Studio
place_1156,Mangueirinha Gol,Nova Iguaçu,BR,-22.769029,-43.50733,Soccer Field
place_1157,Academia PROFIT,Nova Iguaçu,BR,-22.767654,-43.505353,Gymnastics Center
place_1158,Campo Pé de Pato,Nova Iguaçu,BR,-22.76101,-43.493843,Soccer Field
place_1159,Academia Tecnoforma,Nova Iguaçu,BR,-22.762739,-43.485859,Gym and Studio
place_116,Ultra Modern Dance,Rio de Janeiro,BR,-23.008507,-43.316504,Dance Studio
place_1160,Lifcycle,Nova Iguaçu,BR,-22.761565,-43.485893,Bicycle Store
place_1161,Academia fisio-fitness,Nova Iguaçu,BR,-22.758585,-43.48952,Gym and Studio
place_1162,Academia Aquatic Center II,Mesquita,BR,-22.791911,-43.430445,Gym and Studio
place_1163,Academia Gotinhas,Nilópolis,BR,-22.808829,-43.425837,Gym and Studio
place_1164,Fórmula Corpo,Nova Iguaçu,BR,-22.759178,-43.460503,Gym and Studio
place_1165,Smart Fit,Nova Iguaçu,BR,-22.759227,-43.443825,Gym and Studio
place_1166,Vila Olímpica de Mesquita,Mesquita,BR,-22.793934,-43.422028,Gym and Studio
place_1167,Academia Aquatic Center III,Nova Iguaçu,BR,-22.765889,-43.432637,Gym and Studio
place_1168,Mega Techno Fit,Nova Iguaçu,BR,-22.7604,-43.453698,Gym and Studio
place_1169,Estação Saúde,Nova Iguaçu,BR,-22.760261,-43.454196,Gym and Studio
place_117,Bodytech,Rio de Janeiro,BR,-23.012146,-43.310067,Gym and Studio
place_1170,American Sports Container,Nova Iguaçu,BR,-22.759485,-43.459695,Sports Bar
place_1171,Premium Fit,Nova Iguaçu,BR,-22.758601,-43.46074,Gym and Studio
place_1172,Academia Estação Saúde Fitness,Nilópolis,BR,-22.805141,-43.425058,Gym and Studio
place_1173,Bodytech,Nova Iguaçu,BR,-22.762068,-43.465276,Gym and Studio
place_1174,Sport Life,Nova Iguaçu,BR,-22.763938,-43.440679,Gym and Studio
place_1175,Escola de Jiu-Jitsu André Negao,Nova Iguaçu,BR,-22.767902,-43.441903,Martial Arts Dojo
place_1176,Academia de Dança Tereza Petsold,Nova Iguaçu,BR,-22.757616,-43.450997,Trade School
place_1177,Aquatic Center Dolphin Academia,Mesquita,BR,-22.78537,-43.422197,Gym and Studio
place_1178,Instituto de Dança Priscila Ferraz,Nilópolis,BR,-22.805648,-43.422562,Dance Studio
place_1179,Academia Body Builder Systems,Nova Iguaçu,BR,-22.758914,-43.433785,Gym and Studio
place_118,Itanhangá Golf Club,Rio de Janeiro,BR,-22.994988,-43.306956,Golf Course
place_1180,Academia Estação Fitness,Mesquita,BR,-22.794552,-43.420162,Gym and Studio
place_1181,Smart Fit,Nova Iguaçu,BR,-22.758579,-43.457918,Gym and Studio
place_1182,Academia Carioca de Tiro,Mesquita,BR,-22.77129,-43.433457,Sports and Recreation
place_1183,Smart Fit,Nova Iguaçu,BR,-22.75649,-43.452851,Gym and Studio
place_1184,Body Fitness,Nova Iguaçu,BR,-22.765608,-43.442349,Gym and Studio
place_1185,Smart Fit,Mesquita,BR,-22.784178,-43.430383,Gym and Studio
place_1186,Trivella's Bar,Nilópolis,BR,-22.811019,-43.422002,Sports Bar
place_1187,Campo do Puri,Nilópolis,BR,-22.797934,-43.405632,Soccer Field
place_1188,Quadra do Vasquinho,Nilópolis,BR,-22.802298,-43.404797,Soccer Field
place_1189,Academia Everest,Coelho da Rocha,BR,-22.788628,-43.406348,Gym and Studio
place_119,Ks,Rio de Janeiro,BR,-23.006736,-43.315269,Gym and Studio
place_1190,Campo do Vasquinho,Nilópolis,BR,-22.802438,-43.404299,Soccer Field
place_1191,Academia Nívea Cristina,Nilópolis,BR,-22.808561,-43.405325,Gym and Studio
place_1192,Quadra do CEJA,São João de Meriti,BR,-22.798318,-43.403008,Sports and Recreation
place_1193,Olinda Skatepark,Nilópolis,BR,-22.809362,-43.403714,Skate Park
place_1194,Academia Kérol Dance,Olinda,BR,-22.815095,-43.405106,Gym and Studio
place_1195,Aquatic Center Dolphim Academia,São João de Meriti,BR,-22.789034,-43.402846,Sports and Recreation
place_1196,Clássico Sport Beer,Mesquita,BR,-22.792187,-43.435782,Sports Bar
place_1197,Anania's Bar,Mesquita,BR,-22.787313,-43.424314,Sports Bar
place_1198,Trivella Bar,Nilópolis,BR,-22.810886,-43.42225,Sports Bar
place_1199,Choperia N°1 Brahma,Nilópolis,BR,-22.810847,-43.416354,"Sports Bar, Beer Bar"
place_12,Campo de Futebol,Rio de Janeiro,BR,-22.993642,-43.607822,Soccer Field
place_120,Smart Fit,Rio de Janeiro,BR,-23.009728,-43.3043,Gym and Studio
place_1200,Trevo Sports Bar e Restaurante,Nova Iguaçu,BR,-22.763512,-43.444932,"Sports Bar, Restaurant"
place_1201,Reduto Albergue,Mesquita,BR,-22.771008,-43.418464,"Dive Bar, Sports Bar"
place_1202,Resenha's Sports Bar,Nova Iguaçu,BR,-22.765894,-43.427495,Sports Bar
place_1203,Brasilian Sport Bar,Nova Iguaçu,BR,-22.7602,-43.457769,Sports Bar
place_1204,Brazilian Sport Bar,Nova Iguaçu,BR,-22.759276,-43.457935,Sports Bar
place_1205,Academia Body Fitness Eden,São João de Meriti,BR,-22.756774,-43.409592,Gym and Studio
place_1206,Academia Body Fitness Vila,São João de Meriti,BR,-22.796949,-43.38203,Gym and Studio
place_1207,Fórmula Fitness Viva Saúde Academia,Belford Roxo,BR,-22.766581,-43.403057,Gym and Studio
place_1208,Rio Fitness,São João de Meriti,BR,-22.803382,-43.367072,Gym and Studio
place_1209,Academia Bacalhau Fitness Club,São João de Meriti,BR,-22.794838,-43.376523,Gym and Studio
place_121,Gracie Barra Rio Matriz,Rio de Janeiro,BR,-23.013604,-43.304832,Martial Arts Dojo
place_1210,Academia Body Fitness,Belford Roxo,BR,-22.756804,-43.409656,Arts and Entertainment
place_1211,Academia New Fitness,Mesquita,BR,-22.77643,-43.404799,Gym and Studio
place_1212,Smart Fit,Belford Roxo,BR,-22.765647,-43.399899,Gym and Studio
place_1213,Smart Fit,São João de Meriti,BR,-22.796731,-43.351735,Gym and Studio
place_1214,Academia Body Fight,Belford Roxo,BR,-22.770385,-43.395624,Sports and Recreation
place_1215,CT- Centro de Treinamentos do Audax-RJ,São João de Meriti,BR,-22.79322,-43.358988,Sports Club
place_1216,Vila Olimpica de São João de Meriti,São João de Meriti,BR,-22.77795,-43.401136,Sports and Recreation
place_1217,Academia By Fitness,Belford Roxo,BR,-22.760086,-43.402837,Gym and Studio
place_1218,Smart Fit,São João de Meriti,BR,-22.776711,-43.361161,Gym and Studio
place_1219,Espaço Rubro Negro,São João de Meriti,BR,-22.797629,-43.352572,Retail
place_122,Academia Marina Barra Clube,Rio de Janeiro,BR,-23.005209,-43.305446,Gym and Studio
place_1220,Zona Urbana Paintball,São João de Meriti,BR,-22.795286,-43.362549,Paintball Field
place_1221,Elite Fitness,Palmas,BR,-22.779723,-43.371205,"Education, Gym and Studio"
place_1222,Belford Roxo Country Clube,Belford Roxo,BR,-22.766808,-43.402874,Sports and Recreation
place_1223,Academia Ritmo,São João de Meriti,BR,-22.799485,-43.373249,Gym and Studio
place_1224,Gol do Jorginho,Coelho da Rocha,BR,-22.795016,-43.401987,Soccer Field
place_1225,Academia Fitness Saúde,São João de Meriti,BR,-22.806443,-43.380127,Gym and Studio
place_1226,Centauro,São João de Meriti,BR,-22.798701,-43.351532,Sporting Goods Retail
place_1227,Quadra do CEPRAC,São João de Meriti,BR,-22.777086,-43.390204,Soccer Field
place_1228,Campo do Russo,São João de Meriti,BR,-22.794957,-43.370569,Soccer Field
place_1229,Flex Fitness Academia,São João de Meriti,BR,-22.803069,-43.365622,Gym and Studio
place_123,Academia Água Viva,Rio de Janeiro,BR,-22.961113,-43.334683,Gym and Studio
place_1230,Shen Men Studio Pilates,Rio de Janeiro,BR,-22.805776,-43.365123,Gym and Studio
place_1231,Academia Lobo do Vilar,São João de Meriti,BR,-22.781033,-43.360764,Gym and Studio
place_1232,Quadra Gh2,Rio de Janeiro,BR,-22.812621,-43.365162,Soccer Field
place_1233,ESC - Energic Sport Center,Duque de Caxias,BR,-22.789408,-43.312427,Sporting Goods Retail
place_1234,Academia Lobo do Botânico,São João de Meriti,BR,-22.775658,-43.355116,Dance Studio
place_1235,Academia Up Grade,Duque de Caxias,BR,-22.788545,-43.308895,Gym and Studio
place_1236,Academia Centauros,São João de Meriti,BR,-22.79347,-43.336418,Gym and Studio
place_1237,Fernandes Fit Club,Unknown,BR,-22.773784,-43.360276,Gym and Studio
place_1238,Smart Fit,Duque de Caxias,BR,-22.792312,-43.311682,Gym and Studio
place_1239,Smart Fit,Duque de Caxias,BR,-22.788481,-43.306385,Gym and Studio
place_124,Smart Fit,Rio de Janeiro,BR,-22.957533,-43.339929,Gym and Studio
place_1240,Academia Vibração.,Rio de Janeiro,BR,-22.830939,-43.352559,Gym and Studio
place_1241,Beer Soccer Club,Duque de Caxias,BR,-22.790323,-43.304986,"Beer Bar, Sports Bar, Restaurant"
place_1242,Centro de Esportes João Gaspar Corrêa Meyer,Duque de Caxias,BR,-22.795192,-43.301654,Sports Club
place_1243,UpGrade Fitness,Duque de Caxias,BR,-22.788482,-43.308893,Gym and Studio
place_1244,Centauro,São João de Meriti,BR,-22.804114,-43.345516,"Landmarks and Outdoors, Shopping Mall, Sporting Goods Retail"
place_1245,Campo da Igrejinha,São João de Meriti,BR,-22.781802,-43.371757,Soccer Field
place_1246,Planet Nutrition,São João de Meriti,BR,-22.774816,-43.360865,Sporting Goods Retail
place_1247,Basca da Sucupira,São João de Meriti,BR,-22.773339,-43.359074,Basketball Court
place_1248,Campo do Tartarugão,Coelho da Rocha,BR,-22.773446,-43.368671,Soccer Field
place_1249,Cross Training Brutus,São João de Meriti,BR,-22.779387,-43.374458,Gym and Studio
place_125,Adidas,Rio de Janeiro,BR,-22.971288,-43.371625,Sporting Goods Retail
place_1250,Elite Academia,São João de Meriti,BR,-22.779368,-43.37521,Gym and Studio
place_1251,Campo da Jaqueira,Duque de Caxias,BR,-22.768814,-43.335951,Soccer Field
place_1252,Academia KiForma,Rio de Janeiro,BR,-22.833362,-43.354499,Gym and Studio
place_1253,Academia Flex Coelho Neto,Rio de Janeiro,BR,-22.833577,-43.344658,Gym and Studio
place_1254,Academia Smart Life,São João de Meriti,BR,-22.772044,-43.372713,Gym and Studio
place_1255,"Safira Club Natação, Hidroginástica e Pilates",São João de Meriti,BR,-22.778414,-43.380329,Swimming Pool
place_1256,Academia Espaço Gym,Coelho da Rocha,BR,-22.780147,-43.382001,Gym and Studio
place_1257,Olimpo Futebol,Unknown,BR,-22.836917,-43.346682,Soccer Field
place_1258,Campo do Noia,São João de Meriti,BR,-22.763145,-43.357135,Soccer Field
place_1259,Academia Life On,Duque de Caxias,BR,-22.792112,-43.300577,Gym and Studio
place_126,Centauro,Rio de Janeiro,BR,-22.971184,-43.373253,Retail
place_1260,Academia Physical Shape,Duque de Caxias,BR,-22.775138,-43.295968,Gym and Studio
place_1261,Toca do Gol,Duque de Caxias,BR,-22.755593,-43.292552,Soccer Field
place_1262,Winner's Gym,Duque de Caxias,BR,-22.771796,-43.292627,Gym and Studio
place_1263,Campo de treinamento C.R.V.G.,Duque de Caxias,BR,-22.770814,-43.288715,Soccer Field
place_1264,academia Physical Shape,Duque de Caxias,BR,-22.770784,-43.288652,Sports and Recreation
place_1265,Academia Ritmu's,Duque de Caxias,BR,-22.769031,-43.292874,Gym and Studio
place_1266,Academia Extreme,Duque de Caxias,BR,-22.766433,-43.304288,Gym and Studio
place_1267,Campo do Poeirão,São João de Meriti,BR,-22.794315,-43.339386,Sports Club
place_1268,Centro Luiz Gonzaga de Tradições Nordestinas- São Cristóvão,Duque de Caxias,BR,-22.763824,-43.313569,Recreation Center
place_1269,B7Fit,São João de Meriti,BR,-22.790477,-43.34199,Gymnastics Center
place_127,Green Village,Rio de Janeiro,BR,-22.989304,-43.324385,Soccer Field
place_1270,Academia Régia,São João de Meriti,BR,-22.779811,-43.337469,Gym and Studio
place_1271,Academia MX Fitness,Duque de Caxias,BR,-22.761376,-43.320157,Gym and Studio
place_1272,Academia Dilo's,Duque de Caxias,BR,-22.75887,-43.289558,Gym and Studio
place_1273,Academia 2D Fitness,Duque de Caxias,BR,-22.761376,-43.320157,Gym and Studio
place_1274,Academia Max Power,Duque de Caxias,BR,-22.756311,-43.296833,Gym and Studio
place_1275,GSFR Fitness,Duque de Caxias,BR,-22.7606,-43.278562,Gym and Studio
place_1276,Academia Body Physical,Duque de Caxias,BR,-22.759292,-43.31854,Climbing Gym
place_1277,Academia Espaço Saúde,Duque de Caxias,BR,-22.756165,-43.30655,Gym and Studio
place_1278,Bar do Nem,Duque de Caxias,BR,-22.784098,-43.295179,Sports Bar
place_1279,Empório Marias do Zé,Rio de Janeiro,BR,-22.809188,-43.323877,Gastropub
place_128,Academia Vida Ativa,Rio de Janeiro,BR,-22.989218,-43.322752,Gym and Studio
place_1280,Quiosque do Tio Glaucon,Duque de Caxias,BR,-22.797812,-43.322475,Sports Bar
place_1281,Fiorito's Pub,Rio de Janeiro,BR,-22.839521,-43.302028,Sports Bar
place_1282,Crossfit Ilha,Rio de Janeiro,BR,-22.804364,-43.204288,Sports and Recreation
place_1283,Academia Meta Física,Rio de Janeiro,BR,-22.804106,-43.210993,Education
place_1284,BEC Academia,Duque de Caxias,BR,-22.778739,-43.290097,Gym and Studio
place_1285,Associação Atlética Portuguesa,Rio de Janeiro,BR,-22.802037,-43.208749,Sports and Recreation
place_1286,Up GYM,Rio de Janeiro,BR,-22.804345,-43.207675,Gym and Studio
place_1287,Ilha Point,Rio de Janeiro,BR,-22.804545,-43.202035,Gym and Studio
place_1288,Academia acqua fitness,Duque de Caxias,BR,-22.791733,-43.295425,Gym and Studio
place_1289,Flexeiros Atlético Clube,Unknown,BR,-22.787093,-43.22752,Sports and Recreation
place_129,Piscina Vancouver/Los Angeles,Rio de Janeiro,BR,-22.971383,-43.357827,Swimming Pool
place_1290,Galeão Paintball,Rio de Janeiro,BR,-22.809271,-43.224099,Paintball Field
place_1291,Instituto Reação - Polo Tubiacanga,Unknown,BR,-22.785442,-43.226289,Martial Arts Dojo
place_1292,Campo da Paz - Esqueleto,Duque de Caxias,BR,-22.795254,-43.286353,Soccer Field
place_1293,WQSurf,Duque de Caxias,BR,-22.787234,-43.286349,Sporting Goods Retail
place_1294,Baile Caxias Shopping,Duque de Caxias,BR,-22.787327,-43.286414,"Salsa Club, Hair Salon"
place_1295,Fisico e Forma,Duque de Caxias,BR,-22.787888,-43.286804,Sporting Goods Retail
place_1296,Academia Corpo Ativo,Duque de Caxias,BR,-22.790292,-43.288304,Gym and Studio
place_1297,Ct Caxias,Duque de Caxias,BR,-22.781965,-43.285282,Soccer Field
place_1298,Espaço Rubro Negro,Duque de Caxias,BR,-22.785601,-43.287,Sporting Goods Retail
place_1299,C.T Vasco da Gama Washington Luiz,Duque de Caxias,BR,-22.781682,-43.285213,Soccer Field
place_13,Santa Cruz Paintball,Unknown,BR,-22.958371,-43.661958,Paintball Field
place_130,Academia Moradas Bloco 3,Unknown,BR,-22.977355,-43.329115,Gymnastics Center
place_1300,Centauro,Rio de Janeiro,BR,-22.801673,-43.201527,Sporting Goods Retail
place_1301,Iate Clube de Ramos,Rio de Janeiro,BR,-22.840723,-43.249436,Sports and Recreation
place_1302,Espaço Leandro Azevedo,Rio de Janeiro,BR,-22.799349,-43.204545,Dance Studio
place_1303,Academia dde ginastica Fly Body,Rio de Janeiro,BR,-22.819073,-43.290876,Gym and Studio
place_1304,Estilo Natural Suplementos,Rio de Janeiro,BR,-22.801947,-43.201973,Retail
place_1305,Espaço Rubro Negro,Rio de Janeiro,BR,-22.801667,-43.201778,Sporting Goods Retail
place_1306,Mundo Happy Bee,Rio de Janeiro,BR,-22.802053,-43.201536,Recreation Center
place_1307,Gigante da Colina,Rio de Janeiro,BR,-22.801772,-43.201342,Sporting Goods Retail
place_1308,Team Moraes,Rio de Janeiro,BR,-22.800228,-43.199674,Martial Arts Dojo
place_1309,Aquarius Espaço Holístico,Rio de Janeiro,BR,-22.797694,-43.191711,Pilates Studio
place_131,Total Fitness,Rio de Janeiro,BR,-22.975999,-43.327702,"Education, Gym and Studio"
place_1310,Academia Moving Body,Rio de Janeiro,BR,-22.795464,-43.182941,Gym and Studio
place_1311,Academia Fitness Club,Rio de Janeiro,BR,-22.793436,-43.171039,"Education, Gym and Studio"
place_1312,Esporte Club Cocota,Rio de Janeiro,BR,-22.806966,-43.183152,Gym and Studio
place_1313,Academia Companhia do Corpo,Rio de Janeiro,BR,-22.807334,-43.183662,Gym and Studio
place_1314,Aula de Taekwondo Prof. Allan Corrêa,Unknown,BR,-22.794952,-43.209395,Martial Arts Dojo
place_1315,Campo INPS,Rio de Janeiro,BR,-22.789722,-43.184435,Soccer Field
place_1316,Cia de Dança Daniela Monerat,Unknown,BR,-22.783489,-43.166726,Dance Studio
place_1317,Academia Riachuelo,Unknown,BR,-22.78351,-43.159263,Gym and Studio
place_1318,Estande de Tiro BFNIG,Rio de Janeiro,BR,-22.781578,-43.159154,Gun Range
place_1319,Academia Body Shopping,Rio de Janeiro,BR,-22.810948,-43.19416,Gym and Studio
place_132,Pr1mera Gym,Unknown,BR,-22.987934,-43.310802,Gym and Studio
place_1320,Vila Olímpica,Rio de Janeiro,BR,-22.815866,-43.182109,Sports and Recreation
place_1321,Jequiá Iate Clube,Rio de Janeiro,BR,-22.821891,-43.175416,Sports Club
place_1322,Academia Equilíbrio do Corpo,Rio de Janeiro,BR,-22.815006,-43.177009,Gym and Studio
place_1323,Star Bike,Rio de Janeiro,BR,-22.810608,-43.185935,Bicycle Store
place_1324,Piscinão de São Gonçalo,São Gonçalo,BR,-22.805489,-43.065014,Swimming Pool
place_1325,Barreirinha Futebol e Regatas,Rio de Janeiro,BR,-22.763685,-43.10749,Sports and Recreation
place_1326,Paquetá Bike,Rio de Janeiro,BR,-22.762565,-43.107903,Bicycle Store
place_1327,Academia Universo do Sport,Unknown,BR,-22.801621,-43.054135,Gym and Studio
place_1328,Escolinha Fluminense FC,São Gonçalo,BR,-22.807383,-43.016135,Sports Club
place_1329,Academia Body Center,São Gonçalo,BR,-22.810249,-43.015576,Gym and Studio
place_133,Nitro Academia,Unknown,BR,-22.987817,-43.310422,Gym and Studio
place_1330,LM - Jiu Jitsu,São Gonçalo,BR,-22.818339,-43.013884,Martial Arts Dojo
place_1331,Gonçalense Futebol Clube,Unknown,BR,-22.800583,-43.008574,Soccer Field
place_1332,Moda Fitness Visual Hot,São Gonçalo,BR,-22.798832,-43.004769,Retail
place_1333,ZE Fitness,São Gonçalo,BR,-22.831403,-43.019085,Gym and Studio
place_1334,Academia Zeus,São Gonçalo,BR,-22.807587,-43.021033,Gym and Studio
place_1335,Academia Style Fitness,São Gonçalo,BR,-22.805465,-42.965597,Gym and Studio
place_1336,Fácil Academia,São Gonçalo,BR,-22.793463,-43.031363,Gym and Studio
place_1337,Spyder Paintball,Unknown,BR,-22.795858,-42.98237,Paintball Field
place_1338,Academia Fix Fitness Club,São Gonçalo,BR,-22.804558,-42.980379,Gym and Studio
place_1339,Cicle São Paulo,São Gonçalo,BR,-22.808257,-43.02086,Bicycle Store
place_134,Nike House,Unknown,BR,-22.994853,-43.30733,Sports and Recreation
place_1340,Agropecuária Raul Veiga,São Gonçalo,BR,-22.8225,-42.998301,Agriculture and Forestry Service
place_1341,QuimBola,Unknown,BR,-22.812731,-42.977811,Soccer Field
place_1342,Centro Social e Esportivo São Jorge,Unknown,BR,-22.812731,-42.977811,Soccer Field
place_1343,Intense Casa de Arte Cultura,Unknown,BR,-22.815671,-43.025112,Dance Studio
place_1344,Academia HR Fitness,Unknown,BR,-22.821647,-42.976013,"Education, Gym and Studio"
place_1345,Academia Athlete's House,Unknown,BR,-22.82292,-42.975792,Gym and Studio
place_1346,Centro Esportivo Magger,São Gonçalo,BR,-22.836834,-42.992365,Gym and Studio
place_1347,Bagdá Paintball,São Gonçalo,BR,-22.798258,-42.957713,Paintball Field
place_1348,Arabesk Studio,São Gonçalo,BR,-22.82009,-43.036883,Dance Studio
place_1349,Academia Equipe Fitness,Pacheco,BR,-22.830952,-42.972405,Gym and Studio
place_135,Piscina do Condomínio Caminhos da Barra,Rio de Janeiro,BR,-22.956267,-43.348743,Swimming Pool
place_1350,Fábio Monteiro - Studio de Pilates,Unknown,BR,-22.820623,-43.039843,Gym and Studio
place_1351,Academia Sport e Art,São Gonçalo,BR,-22.822383,-43.040512,Education
place_1352,Academia WR,São Gonçalo,BR,-22.796666,-42.952407,Gym and Studio
place_1353,Academia Corpus 50,Seropédica,BR,-22.741341,-43.705649,Gym and Studio
place_1354,R2 academia,Seropédica,BR,-22.721128,-43.726779,Gym and Studio
place_1355,Sports Academia,Seropédica,BR,-22.74804,-43.710014,Gym and Studio
place_1356,Arena Funcional Paixaun,Seropédica,BR,-22.74185,-43.706728,Gymnastics Center
place_1357,RTX Academia,Seropédica,BR,-22.746222,-43.699939,Gym and Studio
place_1358,Yoga,Seropédica,BR,-22.746139,-43.694859,Yoga Studio
place_1359,Academia New Life,Seropédica,BR,-22.753173,-43.692775,Gym and Studio
place_136,Padaria da Barra,Rio de Janeiro,BR,-23.012518,-43.305308,Bakery
place_1360,Quadra do Valtinho,Seropédica,BR,-22.742618,-43.701857,Soccer Field
place_1361,Life Healthy Academy,Seropédica,BR,-22.742842,-43.695969,Gym and Studio
place_1362,Setorpédica,Seropédica,BR,-22.732224,-43.654834,Swimming Pool
place_1363,DG Fitness,Seropédica,BR,-22.727033,-43.652074,Gym and Studio
place_1364,Sport Life Centro Fitness,Queimados,BR,-22.717217,-43.567137,Gym and Studio
place_1365,Balland Fitness,Queimados,BR,-22.72526,-43.567709,Gym and Studio
place_1366,Arena São Miguel de Motocross,Queimados,BR,-22.733282,-43.570224,Race Track
place_1367,Sítio Kakarecos,Queimados,BR,-22.723065,-43.575116,Recreation Center
place_1368,Paintball Campo dos Anjos,Queimados,BR,-22.72917,-43.563792,Paintball Field
place_1369,Paintball,Queimados,BR,-22.729204,-43.56373,Paintball Field
place_137,Bar do Cláudio,Rio de Janeiro,BR,-23.002666,-43.350239,"Sports Bar, BBQ Joint"
place_1370,Academia JB Fitness,Queimados,BR,-22.73643,-43.556759,Gym and Studio
place_1371,Campo do São Roque,Queimados,BR,-22.720477,-43.563831,Sports and Recreation
place_1372,Vila Olimpica - Queimados/Rj,Queimados,BR,-22.721728,-43.559723,Gym and Studio
place_1373,Smart Fit,Queimados,BR,-22.717398,-43.554289,Gym and Studio
place_1374,Fitness Club,Queimados,BR,-22.714085,-43.557217,Gym and Studio
place_1375,Campo de Tiro Esportivo,Queimados,BR,-22.73591,-43.546401,Gun Range
place_1376,Selva Paintball,Nova Iguaçu,BR,-22.735452,-43.540935,Paintball Field
place_1377,Sitio amigo do rei,Nova Iguaçu,BR,-22.73462,-43.538783,Swimming Pool
place_1378,Body Mais Suplementos e Acessorios,Nova Iguaçu,BR,-22.746509,-43.522081,Gym and Studio
place_1379,Centro de Esporte e Lazer da Terceira Idade,Queimados,BR,-22.722031,-43.559041,Recreation Center
place_138,CFP9,Rio de Janeiro,BR,-23.007658,-43.299796,Gym and Studio
place_1380,Academia Garra,Nova Iguaçu,BR,-22.751253,-43.5153,Gym and Studio
place_1381,Academia Biofit,Queimados,BR,-22.717675,-43.554609,"Education, Gym and Studio"
place_1382,Biofit Academia,Queimados,BR,-22.717632,-43.555047,Sports and Recreation
place_1383,Academia Inove Fitness,Nova Iguaçu,BR,-22.748041,-43.51077,Gymnastics Center
place_1384,Inove Fitness,Nova Iguaçu,BR,-22.748165,-43.510899,Dance Studio
place_1385,Lavitá Estética e Pilates,Queimados,BR,-22.713938,-43.557966,Gymnastics Center
place_1386,CAFIS Rodilândia,Nova Iguaçu,BR,-22.739884,-43.511011,Gym and Studio
place_1387,Arena Zenith,Queimados,BR,-22.713163,-43.541647,Soccer Field
place_1388,Campo do Ferroviario,Nova Iguaçu,BR,-22.722059,-43.5218,Soccer Field
place_1389,Campo do Boladao,Nova Iguaçu,BR,-22.715841,-43.527856,Soccer Field
place_139,Renato Estrela Bicicletas,Rio de Janeiro,BR,-23.008292,-43.301003,Bicycle Store
place_1390,Austin Park,Nova Iguaçu,BR,-22.720187,-43.520626,Gym and Studio
place_1391,Academia Smart Life,Nova Iguaçu,BR,-22.719439,-43.520107,Gym and Studio
place_1392,Academia de natação da Tia Cleo,Nova Iguaçu,BR,-22.719949,-43.518802,Sports and Recreation
place_1393,Arena H9 Futebol Society,Nova Iguaçu,BR,-22.725429,-43.513042,Soccer Field
place_1394,Centro de Treinamento Altamiro - Casa do Estalo,Nova Iguaçu,BR,-22.724521,-43.512581,Sports and Recreation
place_1395,GAN- fitness,Queimados,BR,-22.70889,-43.566495,Martial Arts Dojo
place_1396,Campo do Oriente,Queimados,BR,-22.707317,-43.56119,Soccer Field
place_1397,Academia Espaço Saúde,Nova Iguaçu,BR,-22.739117,-43.456255,Gym and Studio
place_1398,Unisport,Nova Iguaçu,BR,-22.758779,-43.474727,Gym and Studio
place_1399,Nova Iguaçu Futebol Clube,Nova Iguaçu,BR,-22.747612,-43.461352,Organization
place_14,Campo Guaratibano,Unknown,BR,-22.973798,-43.590527,Soccer Field
place_140,Rio Beach Club,Unknown,BR,-23.012055,-43.297204,"Music Venue, Sports Club"
place_1400,Academia Top Forma,Nova Iguaçu,BR,-22.753139,-43.454902,Gym and Studio
place_1401,Academia Saúde 2000,Nova Iguaçu,BR,-22.749259,-43.45161,Gym and Studio
place_1402,Academia status,Rio de Janeiro,BR,-22.732016,-43.473263,Gym and Studio
place_1403,Morro Agudo FC,Nova Iguaçu,BR,-22.74464,-43.490373,Soccer Field
place_1404,Academia Bio-Fitness.,Unknown,BR,-22.752269,-43.488489,Gym and Studio
place_1405,Academia HD,Nova Iguaçu,BR,-22.744751,-43.486112,Gym and Studio
place_1406,Academia Up! Turquesa,Nova Iguaçu,BR,-22.747513,-43.484799,Gym and Studio
place_1407,Espaço João e Maria,Nova Iguaçu,BR,-22.73864,-43.489349,Swimming Pool
place_1408,Academia Universo Fitness,Nova Iguaçu,BR,-22.73476,-43.500729,Gym and Studio
place_1409,Piscina Império,Nova Iguaçu,BR,-22.732567,-43.499673,Swimming Pool
place_141,Festa e Aventura Indoor,Rio de Janeiro,BR,-22.986623,-43.302489,"Arts and Entertainment, Skate Park"
place_1410,Cf4018,Nova Iguaçu,BR,-22.73182,-43.500344,Gym and Studio
place_1411,Graça Fitness,Nova Iguaçu,BR,-22.729258,-43.523104,Gym and Studio
place_1412,Salão de Festas Jardel,Nova Iguaçu,BR,-22.726987,-43.525055,Swimming Pool
place_1413,Academia Padrão Fitness,Nova Iguaçu,BR,-22.727739,-43.527832,Sports and Recreation
place_1414,Academia Padrão Fitness,Nova Iguaçu,BR,-22.720459,-43.524771,Sports and Recreation
place_1415,Physical Gear,Unknown,BR,-22.718307,-43.525784,Gym and Studio
place_1416,Projeto Social Faixa Preta de Jesus,Nova Iguaçu,BR,-22.74983,-43.456515,Martial Arts Dojo
place_1417,Campo do Cobrex,Nova Iguaçu,BR,-22.719882,-43.468956,Soccer Field
place_1418,Campo de Grama Sintética BOLADÃO,Nova Iguaçu,BR,-22.716058,-43.528049,"Social Club, Soccer Field"
place_1419,Polo Esportivo Sandro Silva,Nova Iguaçu,BR,-22.708005,-43.515691,Sports Club
place_142,Estilo Voo Livre - Asa Delta e Parapente,Rio de Janeiro,BR,-23.000825,-43.271778,Sports and Recreation
place_1420,Nova Iguaçu Country Club,Nova Iguaçu,BR,-22.752225,-43.447293,Event Service
place_1421,Paintball RJ Distrito 22,Nova Iguaçu,BR,-22.743164,-43.44074,Paintball Field
place_1422,Cafis Academia,Nova Iguaçu,BR,-22.756298,-43.425758,Gym and Studio
place_1423,Academia Integração Fitness,Nova Iguaçu,BR,-22.712449,-43.460688,Gym and Studio
place_1424,Academia New Body,Nova Iguaçu,BR,-22.719813,-43.44331,Gym and Studio
place_1425,Body Fitness,Nova Iguaçu,BR,-22.709706,-43.429147,Gym and Studio
place_1426,Academia Up Fitness,Nova Iguaçu,BR,-22.747573,-43.484926,Sports and Recreation
place_1427,Academia Power Fitness,Nova Iguaçu,BR,-22.715489,-43.452297,Gym and Studio
place_1428,Academia Summer Fitness,Nova Iguaçu,BR,-22.74566,-43.488955,Gym and Studio
place_1429,Espaço Impacto Piscina Bar,Belford Roxo,BR,-22.727586,-43.417289,Swimming Pool
place_143,Gávea Golf And Country Club,Rio de Janeiro,BR,-22.99653,-43.265088,Golf Course
place_1430,Cidah,Nova Iguaçu,BR,-22.71199,-43.432901,Soccer Field
place_1431,Society Acadêmico,Belford Roxo,BR,-22.742193,-43.405541,Soccer Field
place_1432,Academia Garras,Nova Iguaçu,BR,-22.710532,-43.434057,Gymnastics Center
place_1433,Academia Mega Plena Forma,Belford Roxo,BR,-22.750705,-43.403802,Gym and Studio
place_1434,Academia Superaçao,Nova Iguaçu,BR,-22.709587,-43.433784,Gymnastics Center
place_1435,Bar do gomes,Nova Iguaçu,BR,-22.735602,-43.459681,Sports Bar
place_1436,Bar do Gomes,Nova Iguaçu,BR,-22.735152,-43.459921,Sports Bar
place_1437,Bar do Alemão,Nova Iguaçu,BR,-22.744112,-43.469167,Sports Bar
place_1438,Academia Vital Fit,Belford Roxo,BR,-22.741681,-43.413178,Gym and Studio
place_1439,Academia Plena Forma 2,Belford Roxo,BR,-22.72914,-43.382402,Gym and Studio
place_144,Estilo Voo Livre,Unknown,BR,-23.000855,-43.271841,Sports and Recreation
place_1440,Academia Body Fitness,Nova Iguaçu,BR,-22.739262,-43.435818,Gym and Studio
place_1441,Academia Olimpia Fitness,Nova Iguaçu,BR,-22.749218,-43.439633,Gym and Studio
place_1442,Academia Ryu Jitsu's,Nova Iguaçu,BR,-22.738156,-43.434412,Gym and Studio
place_1443,Bola Roxa,Unknown,BR,-22.749792,-43.384843,"Arts and Entertainment, Soccer Field"
place_1444,Vila Olímpica de Belford Roxo,Belford Roxo,BR,-22.735644,-43.398611,Sports and Recreation
place_1445,Espaço Festa Piscina São Bernardo,Belford Roxo,BR,-22.736181,-43.382446,Swimming Pool
place_1446,IBC - Iguaçu Basquete Club,Nova Iguaçu,BR,-22.749661,-43.445851,Sports and Recreation
place_1447,Bem Viver Academia,Mesquita,BR,-22.7763,-43.404922,Gym and Studio
place_1448,Campo da Bica,Mesquita,BR,-22.777491,-43.405452,Soccer Field
place_1449,Arena Santa Maria,Belford Roxo,BR,-22.725781,-43.383512,Soccer Field
place_145,Bodytech,Rio de Janeiro,BR,-22.996747,-43.260137,Gym and Studio
place_1450,Campo do Nova Aurora,Belford Roxo,BR,-22.72018,-43.401686,Soccer Field
place_1451,Quadra do Castelão,Mesquita,BR,-22.779809,-43.402812,Soccer Field
place_1452,Falcon Fitness,Coelho da Rocha,BR,-22.779158,-43.388499,Gym and Studio
place_1453,Kart,São João de Meriti,BR,-22.781282,-43.396012,Race Track
place_1454,Campo do Cairú,Belford Roxo,BR,-22.756268,-43.365749,Soccer Field
place_1455,Academia Acqua Fitness,Belford Roxo,BR,-22.725491,-43.376169,Gym and Studio
place_1456,Academia Maia,Nova Iguaçu,BR,-22.760928,-43.446751,Gym and Studio
place_1457,Esporte Clube Sueca,Belford Roxo,BR,-22.75716,-43.36182,Sports Club
place_1458,Academia NV Gym,Belford Roxo,BR,-22.758319,-43.362412,Gym and Studio
place_1459,Gfteam BAIXADA CT REDENTOR ITAGIBA CARNEIRO,Belford Roxo,BR,-22.759343,-43.36206,Martial Arts Dojo
place_146,Pista de corrida,Rio de Janeiro,BR,-23.010622,-43.333116,Track
place_1460,Academia Jiu Jitsu,Belford Roxo,BR,-22.759346,-43.361935,Martial Arts Dojo
place_1461,Academia Corpo e Saúde,Belford Roxo,BR,-22.761208,-43.362293,Gym and Studio
place_1462,Health Coach,Belford Roxo,BR,-22.723346,-43.371916,Boxing Gym
place_1463,Academia 15,Belford Roxo,BR,-22.715155,-43.325381,Gym and Studio
place_1464,Academia Corpus Fitness,Belford Roxo,BR,-22.739527,-43.335247,Gym and Studio
place_1465,Querli Cicle,Belford Roxo,BR,-22.732339,-43.35746,Bicycle Store
place_1466,BW Fitnnes Academia,Belford Roxo,BR,-22.730548,-43.346694,Gym and Studio
place_1467,Praça de Santa Marta,Belford Roxo,BR,-22.729584,-43.356014,Gym and Studio
place_1468,Caldeirão do Jajá,Belford Roxo,BR,-22.731787,-43.363027,Soccer Field
place_1469,Academia Plena Forma,Belford Roxo,BR,-22.724419,-43.339336,Gym and Studio
place_147,Cia Athletica,Rio de Janeiro,BR,-22.997546,-43.347606,"Education, Gym and Studio"
place_1470,Aucris Studio,Belford Roxo,BR,-22.722545,-43.367194,Gym and Studio
place_1471,Clube Point do Ferreira,Belford Roxo,BR,-22.719551,-43.333575,Swimming Pool
place_1472,Academia Saúde Fitness,Belford Roxo,BR,-22.712178,-43.3492,Sports and Recreation
place_1473,Academia Iron Man GYM,Duque de Caxias,BR,-22.742519,-43.30685,Gym and Studio
place_1474,Academia Mix Fitness,Campos Elyseos,BR,-22.722017,-43.317394,Gym and Studio
place_1475,Formula Fitness,Duque de Caxias,BR,-22.751698,-43.305063,Gym and Studio
place_1476,Projeto Kbçativa,Coelho da Rocha,BR,-22.783842,-43.378829,"Education, Organization, Skate Park"
place_1477,Academia New Scorpions,Belford Roxo,BR,-22.715209,-43.379997,Gym and Studio
place_1478,Sport Bar,Coelho da Rocha,BR,-22.774679,-43.361238,Sports Bar
place_1479,Pfc Bar,Belford Roxo,BR,-22.717927,-43.382947,Sports Bar
place_148,Campo do Agrião,Rio de Janeiro,BR,-22.970679,-43.283349,"Stadium, Soccer Field"
place_1480,Boxtur,Duque de Caxias,BR,-22.760569,-43.27599,Bicycle Store
place_1481,Energia Fitness,São João de Meriti,BR,-22.764619,-43.332526,Gym and Studio
place_1482,Academia Corpus,São João de Meriti,BR,-22.764697,-43.333218,Gym and Studio
place_1483,Piscina Fênix,Unknown,BR,-22.763467,-43.340525,Swimming Pool
place_1484,Academia Master Fittness,Duque de Caxias,BR,-22.759432,-43.278346,Gym and Studio
place_1485,Academia Bio Atletica,Duque de Caxias,BR,-22.766887,-43.289813,"Education, Gym and Studio, Gymnastics Center"
place_1486,Poli Esportivo do Ypiranga,Guia de Pacobaíba,BR,-22.715968,-43.17829,Sports Club
place_149,Golf Village São Conrado,Unknown,BR,-22.997917,-43.271708,Golf Course
place_15,Carapiá Piscinas,Unknown,BR,-22.969226,-43.586401,Dive Store
place_150,Academia R1 Fitness,Rio de Janeiro,BR,-22.990576,-43.252523,Gym and Studio
place_151,Tennis Clube Medellin,Rio de Janeiro,BR,-23.012783,-43.289505,Tennis Court
place_152,Piscina Salgada,Unknown,BR,-23.014711,-43.28698,Swimming Pool
place_153,C.T. Equipe Marcio Rodrigues Jiu Jitsu,Unknown,BR,-22.975873,-43.332718,Martial Arts Dojo
place_154,Academia Arte e Forma,Rio de Janeiro,BR,-22.974117,-43.333366,"Education, Gym and Studio"
place_155,The Lux Fitness,Unknown,BR,-22.973382,-43.333661,Gym and Studio
place_156,Nitro Academia Rp,Rio de Janeiro,BR,-22.975321,-43.337096,"Education, Gym and Studio"
place_157,Complexo Esportivo da Rocinha,Rio de Janeiro,BR,-22.9931,-43.251517,"Arts and Entertainment, Sports and Recreation"
place_158,Clube de Regatas do Flamengo,Rio de Janeiro,BR,-22.977926,-43.21872,Night Club
place_159,Clube dos Caiçaras,Rio de Janeiro,BR,-22.979909,-43.21262,Sports and Recreation
place_16,Academia Body Gym,Unknown,BR,-22.961595,-43.611552,Sports and Recreation
place_160,adidas Flamengo,Rio de Janeiro,BR,-22.978336,-43.218793,Sporting Goods Retail
place_161,Rio de Janeiro Country Club,Rio de Janeiro,BR,-22.985191,-43.212683,Swimming Pool
place_162,Bodytech,Rio de Janeiro,BR,-22.984147,-43.2205,"Education, Gym and Studio"
place_163,Paissandu Atlético Clube,Rio de Janeiro,BR,-22.979947,-43.217577,Sports and Recreation
place_164,Bodytech,Rio de Janeiro,BR,-22.982951,-43.211124,Gym and Studio
place_165,Bodytech,Rio de Janeiro,BR,-22.982025,-43.216685,Gym and Studio
place_166,Nike+ Ipanema Running Club,Unknown,BR,-22.983912,-43.209328,Sports and Recreation
place_167,Clube 17,Rio de Janeiro,BR,-22.96721,-43.24042,"Social Club, Latin American Restaurant, Sports and Recreation"
place_168,Bodytech Babies&Kids,Rio de Janeiro,BR,-22.982287,-43.216315,Gymnastics Center
place_169,Sheraton Fitness,Rio de Janeiro,BR,-22.991946,-43.232732,Gym and Studio
place_17,Academia MV Fitness,Rio de Janeiro,BR,-22.960209,-43.605434,"Education, Sports and Recreation"
place_170,Ibs Bike Shop,Rio de Janeiro,BR,-22.966509,-43.231558,Bicycle Store
place_171,Bodytech,Rio de Janeiro,BR,-22.984524,-43.206268,Gym and Studio
place_172,Smart Fit,Rio de Janeiro,BR,-22.985658,-43.228566,Gym and Studio
place_173,Proforma,Rio de Janeiro,BR,-22.985532,-43.228563,Gym and Studio
place_174,Academia Airton Senna Team,Rio de Janeiro,BR,-23.008952,-43.296063,Martial Arts Dojo
place_175,Academia Clube Piraquê,Rio de Janeiro,BR,-22.96783,-43.216283,Gym and Studio
place_176,Renato Estrella Bicicletas,Rio de Janeiro,BR,-23.009867,-43.296148,Bicycle Store
place_177,Rio Extreme Preparação Física,Rio de Janeiro,BR,-22.986526,-43.208512,"Education, Gym and Studio"
place_178,Academia Alto Fitness,Rio de Janeiro,BR,-22.986973,-43.231735,Gym and Studio
place_179,Academia Plataforma do Corpo,Rio de Janeiro,BR,-22.994292,-43.257067,Gym and Studio
place_18,Academia House M. Fitness,Unknown,BR,-22.956172,-43.602576,Gym and Studio
place_180,Sao Conrado Beach Club - Barraca de Praia,Rio de Janeiro,BR,-22.999191,-43.259756,"Arts and Entertainment, Sports and Recreation"
place_181,V+ Academia,Rio de Janeiro,BR,-22.994587,-43.238567,Gym and Studio
place_182,Esporte Clube Boa Vista,Rio de Janeiro,BR,-22.970709,-43.283413,Soccer Field
place_183,Fitness Center Villa Lobos,Rio de Janeiro,BR,-22.988374,-43.228757,"Education, Gym and Studio"
place_184,Equipe Filhos do Vento,Rio de Janeiro,BR,-22.988688,-43.227572,Race Track
place_185,Flavia Muniz Beach Tennis Training,Rio de Janeiro,BR,-22.987881,-43.225608,Outdoor Gym
place_186,Aulas Surf & Stand-up Carlão,Rio de Janeiro,BR,-22.987166,-43.222517,Outdoor Gym
place_187,Arena Brahma - Monte Libano,Unknown,BR,-22.980499,-43.215708,Sports Bar
place_188,Lord Jim Pub,Rio de Janeiro,BR,-22.984585,-43.214174,"Arts and Entertainment, Pub, Churrascaria"
place_189,Derby Bar,Rio de Janeiro,BR,-22.973489,-43.22426,"Sports Bar, Brazilian Restaurant"
place_19,Star Fit,Rio de Janeiro,BR,-23.004956,-43.540172,Gym and Studio
place_190,Dmsop,Rio de Janeiro,BR,-22.98718,-43.224525,Sports Bar
place_191,Boteco Galera do Jockey,Rio de Janeiro,BR,-22.966119,-43.219002,Sports Bar
place_192,The Bar Surfshop,Rio de Janeiro,BR,-22.986884,-43.19108,"Sports Bar, Restaurant"
place_193,Bodytech,Rio de Janeiro,BR,-22.973536,-43.188377,Gym and Studio
place_194,Academia Gt,Rio de Janeiro,BR,-22.968107,-43.185236,Gym and Studio
place_195,Bodytech,Rio de Janeiro,BR,-22.961581,-43.207853,Gym and Studio
place_196,Loja Fla,Rio de Janeiro,BR,-22.965668,-43.177462,Fashion Retail
place_197,Academia Velox,Rio de Janeiro,BR,-22.960889,-43.202441,Gym and Studio
place_198,Restaurante da Sociedade Hípica Brasileira,Rio de Janeiro,BR,-22.962519,-43.213521,Brazilian Restaurant
place_199,Smart Fit,Rio de Janeiro,BR,-22.984444,-43.199115,Gym and Studio
place_2,Clube Atletico Brisa Olímpico,Unknown,BR,-22.978118,-43.665141,Sports and Recreation
place_20,Campo de Futebol IFC,Rio de Janeiro,BR,-22.99972,-43.540859,Soccer Field
place_200,Pista de Corrida da Lagoa,Rio de Janeiro,BR,-22.963034,-43.21184,Track
place_201,Bodytech,Rio de Janeiro,BR,-22.984124,-43.224013,Gym and Studio
place_202,PROQUALITY Fitness Center,Rio de Janeiro,BR,-22.982547,-43.222532,Education
place_203,Bodytech,Rio de Janeiro,BR,-22.985144,-43.226296,Gym and Studio
place_204,Balance Fitness Academia de Ginástica,Rio de Janeiro,BR,-22.977162,-43.19022,Gym and Studio
place_205,Piscina,Rio de Janeiro,BR,-22.961986,-43.212003,Swimming Pool
place_206,Smart Fit,Rio de Janeiro,BR,-22.964117,-43.218076,Gym and Studio
place_207,Smart Fit,Rio de Janeiro,BR,-22.955234,-43.195531,Gym and Studio
place_208,Fórmula Academia,Rio de Janeiro,BR,-22.96325,-43.178032,Gym and Studio
place_209,Sociedade Germania,Rio de Janeiro,BR,-22.980325,-43.239731,Sports and Recreation
place_21,Academia Wm Fitness,Unknown,BR,-22.99065,-43.549042,"Education, Gym and Studio"
place_210,Academia Gracie,Rio de Janeiro,BR,-22.9553,-43.198042,Trade School
place_211,Academia Gym Center,Rio de Janeiro,BR,-22.960641,-43.206137,Gym and Studio
place_212,Smart Fit,Rio de Janeiro,BR,-22.95951,-43.201907,Gym and Studio
place_213,Gestos,Rio de Janeiro,BR,-22.962527,-43.217097,Yoga Studio
place_214,Clube Condomínio,Rio de Janeiro,BR,-22.964963,-43.226189,Soccer Field
place_215,Walter Tuche Treinamento Esportivo,Rio de Janeiro,BR,-22.967773,-43.217348,Track
place_216,Flamengo Futebol Clube,Unknown,BR,-22.966334,-43.216686,Soccer Field
place_217,Associação Daruma Taish de Arte Marciais,Rio de Janeiro,BR,-22.966185,-43.218879,Martial Arts Dojo
place_218,Clube Condomínio,Rio de Janeiro,BR,-22.965057,-43.226254,Soccer Field
place_219,Piscina 200,Rio de Janeiro,BR,-22.963722,-43.220012,Swimming Pool
place_22,Academia Ele & Ela,Rio de Janeiro,BR,-23.007793,-43.540492,Sports and Recreation
place_220,Beach Soccer Worldwide,Rio de Janeiro,BR,-22.965873,-43.174205,Soccer Field
place_221,Fitness Club Premium,Unknown,BR,-22.965756,-43.173825,Gym and Studio
place_222,Leme Tênis Clube,Rio de Janeiro,BR,-22.9616,-43.166386,Sports and Recreation
place_223,Equipe 1 Academia,Rio de Janeiro,BR,-22.971224,-43.187193,Gym and Studio
place_224,Centro de Artes Nós da Dança,Rio de Janeiro,BR,-22.980058,-43.190791,Dance Studio
place_225,Black Pool,Unknown,BR,-22.967186,-43.178816,Swimming Pool
place_226,Bodytech,Rio de Janeiro,BR,-22.980278,-43.190859,"Health and Beauty Service, Gym and Studio"
place_227,Fitclub Copacabana,Rio de Janeiro,BR,-22.982952,-43.191488,Gym and Studio
place_228,Academia Arpoador Fitness,Rio de Janeiro,BR,-22.987022,-43.191899,Gym and Studio
place_229,Stüdio Pilates & Fisioterapia Alessandro Costa Glück,Rio de Janeiro,BR,-22.971645,-43.186764,Pilates Studio
place_23,Wet'n'Wild,Unknown,BR,-23.012384,-43.517396,Paintball Field
place_230,Academia New Heavy Duty,Rio de Janeiro,BR,-22.965189,-43.178956,Gym and Studio
place_231,Ox Fitness Club Leme,Rio de Janeiro,BR,-22.962925,-43.170496,Gym and Studio
place_232,Lokal Fisiofit,Rio de Janeiro,BR,-22.981479,-43.190888,Gym and Studio
place_233,Smart Fit,Rio de Janeiro,BR,-22.983388,-43.191749,Gym and Studio
place_234,"OTREINO - NATAÇÃO NO MAR, CORRIDA, CICLISMO, TRIATHLON e SUP",Rio de Janeiro,BR,-22.984686,-43.189083,Sports and Recreation
place_235,Fitness Rio,Rio de Janeiro,BR,-22.983502,-43.193571,Gym and Studio
place_236,Mud Bug,Rio de Janeiro,BR,-22.966882,-43.178306,"Pub, Sports Bar"
place_237,Clube dos Marimbas,Unknown,BR,-22.986273,-43.18887,Sports Club
place_238,CrossFit Carioca,Rio de Janeiro,BR,-22.962961,-43.175578,Gym and Studio
place_239,Ciclovia Zona Sul,Rio de Janeiro,BR,-22.962097,-43.175997,Bicycle Store
place_24,Academia Hiper Forma Pedra de Guaratiba,Unknown,BR,-22.978743,-43.58538,Gym and Studio
place_240,Desafio Melhores do Mundo Volei de Praia: BRA x USA,Unknown,BR,-22.965723,-43.171253,Volleyball Court
place_241,Batalha das Quadras Nike,Unknown,BR,-22.965166,-43.172055,Soccer Field
place_242,Circuito Banco do Brasil de Volei de Praia,Rio de Janeiro,BR,-22.965358,-43.173251,Volleyball Court
place_243,Rio de Janeiro Grand Slam,Unknown,BR,-22.965635,-43.173572,Volleyball Court
place_244,Rio Extreme - Treinamento Individual de CROSSFIT  - Leme,Unknown,BR,-22.965042,-43.174561,Sports and Recreation
place_245,Borracharia do Leme,Rio de Janeiro,BR,-22.96341,-43.17402,Bicycle Store
place_246,Piscina Windsor Plaza,Rio de Janeiro,BR,-22.963063,-43.175267,Swimming Pool
place_247,Bora! Sports Bar,Rio de Janeiro,BR,-22.962506,-43.176069,"Sports Bar, Brazilian Restaurant"
place_248,Boteco Cevada,Rio de Janeiro,BR,-22.969914,-43.183774,Sports Bar
place_249,The Clover Irish Pub,Rio de Janeiro,BR,-22.975786,-43.188243,"Pub, Sports Bar, Restaurant"
place_25,Ninho do Urubu/ Flamengo,Unknown,BR,-22.984033,-43.505916,Soccer Field
place_250,Aquafish Itacoatiara,Unknown,BR,-22.963373,-43.032047,Gym and Studio
place_251,Itacoa Soccer,Niterói,BR,-22.962267,-43.034718,Gym and Studio
place_252,Academia Condominio Oceanside,Niterói,BR,-22.958608,-43.066879,Gym and Studio
place_253,Quadra de Itaipuaçu,Inoã,BR,-22.966857,-42.979553,Basketball Court
place_254,Ciclo Bike,Itaipuaçu,BR,-22.962037,-42.988349,Bicycle Store
place_255,Academia da Lagoa,Inoã,BR,-22.962409,-42.98453,Gym and Studio
place_256,Academia Ginásio Gerdau,Itaguaí,BR,-22.917503,-43.752692,Gym and Studio
place_257,Academia Grupo de Caça,Unknown,BR,-22.931268,-43.712524,Gym and Studio
place_258,Espaço Saúde - SESI,Unknown,BR,-22.907649,-43.750756,Gym and Studio
place_259,Acadêmia Água Viva,Rio de Janeiro,BR,-22.924135,-43.680555,Gym and Studio
place_26,Campo de Futebol,Unknown,BR,-22.987695,-43.503747,Soccer Field
place_260,Oriente Atlético Clube,Unknown,BR,-22.932294,-43.690037,"Soccer Field, Arts and Entertainment"
place_261,Bola show,Unknown,BR,-22.93044,-43.680272,Soccer Field
place_262,Boteko Mania S/C,Unknown,BR,-22.930697,-43.680153,Sports Bar
place_263,MW Academia Studio,Unknown,BR,-22.934356,-43.667763,Gym and Studio
place_264,Marcola,Rio de Janeiro,BR,-22.93364,-43.662666,Gun Range
place_265,Esporte Clube Guanabara,Unknown,BR,-22.916744,-43.678806,Soccer Field
place_266,Academia Escola Natação Golfinho Amigo,Rio de Janeiro,BR,-22.93386,-43.654519,Gym and Studio
place_267,CHOPERIA IMPÉRIO DA PICANHA,Rio de Janeiro,BR,-22.928525,-43.635261,"Bar, Restaurant, Sports Bar"
place_268,Academia Bad Dog Gym,Rio de Janeiro,BR,-22.931711,-43.635653,Sports and Recreation
place_269,Campo do Seu Antônio,Rio de Janeiro,BR,-22.934802,-43.631339,Soccer Field
place_27,Centro de Futebol Zico,Rio de Janeiro,BR,-23.01024,-43.477136,Soccer Field
place_270,Campo do Sete de Abril,Rio de Janeiro,BR,-22.929293,-43.638478,Soccer Field
place_271,Campo do Vera Cruz,Rio de Janeiro,BR,-22.927328,-43.64213,Soccer Field
place_272,Jota,Rio de Janeiro,BR,-22.92558,-43.655256,Gun Range
place_273,Academia Body World,Rio de Janeiro,BR,-22.927537,-43.633167,"Education, Gym and Studio"
place_274,Academia Grêmio Fitness,Rio de Janeiro,BR,-22.917681,-43.644213,Gym and Studio
place_275,Nova Forma Academia de Ginástica,Rio de Janeiro,BR,-22.92039,-43.630609,Education
place_276,Academia Nagashima,Rio de Janeiro,BR,-22.922466,-43.626395,Gym and Studio
place_277,Academia On Fit,Unknown,BR,-22.917833,-43.631549,Gymnastics Center
place_278,Academia Pride,Unknown,BR,-22.914319,-43.632717,Gym and Studio
place_279,Elite Fitness Academia,Unknown,BR,-22.951502,-43.60566,Gymnastics Center
place_28,Acqua Fitness Academia,Rio de Janeiro,BR,-23.022929,-43.482839,Gym and Studio
place_280,Espaço Show de Bola,Rio de Janeiro,BR,-22.948427,-43.604706,Soccer Field
place_281,Academia Vitória Fitness,Unknown,BR,-22.920557,-43.617318,Gym and Studio
place_282,Associaçao Atletica Guaratiba,Unknown,BR,-22.950318,-43.603812,Soccer Field
place_283,Aquale center,Rio de Janeiro,BR,-22.90721,-43.658065,Sports and Recreation
place_284,BAR SUPER CHOPP,Rio de Janeiro,BR,-22.924822,-43.630592,"Bar, Sports Bar"
place_285,Smart Fit,Rio de Janeiro,BR,-22.92788,-43.574163,Gym and Studio
place_286,Können Academia,Rio de Janeiro,BR,-22.92167,-43.562471,Gym and Studio
place_287,Aescem,Rio de Janeiro,BR,-22.956308,-43.577304,Club House
place_288,Academia Libra CT,Rio de Janeiro,BR,-22.927187,-43.559721,Gym and Studio
place_289,Academia Body Vision,Rio de Janeiro,BR,-22.939818,-43.576273,Gym and Studio
place_29,Team Nogueira,Rio de Janeiro,BR,-23.019424,-43.472906,Martial Arts Dojo
place_290,Escolinha do Flamengo oficial,Unknown,BR,-22.942926,-43.559291,Soccer Field
place_291,Arena Rio Society,Unknown,BR,-22.941585,-43.556185,Soccer Field
place_292,Arena Rio Society,Unknown,BR,-22.941681,-43.556124,Sports and Recreation
place_293,Quadra do E.M.L,Unknown,BR,-22.924743,-43.559975,Recreation Center
place_294,Centro Esportivo Miécimo da Silva,Rio de Janeiro,BR,-22.914996,-43.553905,Sports and Recreation
place_295,Fisioform Pilates,Rio de Janeiro,BR,-22.91409,-43.548677,Pilates Studio
place_296,Procombat,Rio de Janeiro,BR,-22.91207270095499,-43.561885356903076,Martial Arts Dojo
place_297,Academia Body Fitness,Rio de Janeiro,BR,-22.909925,-43.558923,Gym and Studio
place_298,Smart Fit,Rio de Janeiro,BR,-22.907212,-43.562181,Gym and Studio
place_299,Academia Rasarime,Rio de Janeiro,BR,-22.911931,-43.544109,Gym and Studio
place_3,Jiu Jitsu,Unknown,BR,-22.996457,-43.651293,Martial Arts Dojo
place_30,Piscina,Rio de Janeiro,BR,-23.004443,-43.484836,Swimming Pool
place_300,West Fit Academia,Rio de Janeiro,BR,-22.922964,-43.551841,Gym and Studio
place_301,Academia Aqualife,Rio de Janeiro,BR,-22.92682,-43.556827,Gym and Studio
place_302,Centro de tenis-Pick,Unknown,BR,-22.954364,-43.570671,Gym and Studio
place_303,Piscina do life resort,Unknown,BR,-22.926456,-43.550233,Swimming Pool
place_304,Life Resort GYM,Unknown,BR,-22.926333,-43.550105,Gym and Studio
place_305,Campo La bombonera,Unknown,BR,-22.937105,-43.583106,Soccer Field
place_306,Rio da Prata Futebol Society,Unknown,BR,-22.926721,-43.518505,Sports and Recreation
place_307,Flavia Torres Academia,Rio de Janeiro,BR,-22.916379,-43.53989,Trade School
place_308,Urban.Fit,Rio de Janeiro,BR,-22.916568,-43.53632,Gymnastics Center
place_309,Centro de Tenis - Guto Bahiense,Rio de Janeiro,BR,-22.916876,-43.531812,Tennis Court
place_31,Können Academia,Rio de Janeiro,BR,-22.981873,-43.467351,Gym and Studio
place_310,Arena da Prata,Unknown,BR,-22.917661,-43.527253,Soccer Field
place_311,Equipe Castelo d'ouro - GFTeam Jiu Jitsu,Unknown,BR,-22.908989,-43.553632,Martial Arts Dojo
place_312,Rio Fight,Unknown,BR,-22.917659,-43.521295,Sports and Recreation
place_313,Curves,Rio de Janeiro,BR,-22.908814,-43.561467,"Education, Gym and Studio"
place_314,Campo do Diana,Rio de Janeiro,BR,-22.915811,-43.578132,Soccer Field
place_315,Zen Academia,Rio de Janeiro,BR,-22.90923,-43.567247,Trade School
place_316,Associação Discípulo de Shao-lin Tchan-tao,Rio de Janeiro,BR,-22.907865,-43.563827,Martial Arts Dojo
place_317,Sociedade Musical 10 de Maio,Unknown,BR,-22.907921,-43.565271,Sports and Recreation
place_318,Bar Zileirinho,Unknown,BR,-22.910419,-43.567778,Sports Bar
place_319,Academia Irontech,Rio de Janeiro,BR,-22.977459,-43.493587,Gym and Studio
place_32,Life Gym Academia,Rio de Janeiro,BR,-23.030353,-43.473297,Gym and Studio
place_320,Bike Roger,Rio de Janeiro,BR,-22.955242,-43.465888,Bicycle Store
place_321,Academia - Condomínio Residencial Praça de Vargem Grande,Unknown,BR,-22.984089,-43.496509,Gym and Studio
place_322,Tf GYM Academia,Campo Grande,BR,-22.906425,-43.510234,Gymnastics Center
place_323,Academia Via Flamboyant,Unknown,BR,-22.965008,-43.40591,Gym and Studio
place_324,Academia Next Training,Rio de Janeiro,BR,-22.919856,-43.414351,Gym and Studio
place_325,Academia Body Force,Rio de Janeiro,BR,-22.918291,-43.385022,Gym and Studio
place_326,Academia Sergio Amim II,Rio de Janeiro,BR,-22.939597,-43.368601,Gym and Studio
place_327,Ponto Saúde Academia,Rio de Janeiro,BR,-22.925827,-43.391163,Gym and Studio
place_328,Academia Mega Rio Fitness,Rio de Janeiro,BR,-22.943571,-43.381618,Gym and Studio
place_329,New Fitness,Rio de Janeiro,BR,-22.957982,-43.382343,Gym and Studio
place_33,Cevadas S.A. Bar,Rio de Janeiro,BR,-23.017511,-43.477187,"Sports Bar, Pub"
place_330,Academia Charme do Corpo,Taquara,BR,-22.92923,-43.371801,Education
place_331,Gracie Barra,Rio de Janeiro,BR,-22.982119,-43.378661,Martial Arts Dojo
place_332,Bodytech,Rio de Janeiro,BR,-22.925149,-43.360412,Gym and Studio
place_333,Academia Ripe Training,Rio de Janeiro,BR,-22.93508,-43.369496,Gym and Studio
place_334,Rio Fit Wellness Center,Rio de Janeiro,BR,-22.931865,-43.362706,"Education, Gym and Studio"
place_335,Smart Fit,Rio de Janeiro,BR,-22.917156,-43.384869,Gym and Studio
place_336,Smart Fit,Rio de Janeiro,BR,-22.914268,-43.373886,Gym and Studio
place_337,Academia The Place,Rio de Janeiro,BR,-22.92499,-43.370506,Gym and Studio
place_338,CASA Alegria de Viver,Unknown,BR,-22.917202,-43.414161,Recreation Center
place_339,Aquacenter,Rio de Janeiro,BR,-22.915002,-43.372398,Education
place_34,Academia Djan Madruga,Rio de Janeiro,BR,-23.018371,-43.474511,Education
place_340,Academia Sérgio Amim,Rio de Janeiro,BR,-22.917725,-43.39611,Gym and Studio
place_341,Academia Biophysic,Rio de Janeiro,BR,-22.925069,-43.359845,Education
place_342,Clube Campestre,Rio de Janeiro,BR,-22.938695,-43.356662,"Park, Gym and Studio, Sports Club"
place_343,Rio Fit,Rio de Janeiro,BR,-22.936043,-43.362682,Gym and Studio
place_344,Centauro,Rio de Janeiro,BR,-22.924911,-43.361096,Sporting Goods Retail
place_345,Academia Megasport,Rio de Janeiro,BR,-22.927911,-43.366375,Pilates Studio
place_346,Fluminense Football Club,Unknown,BR,-22.958927,-43.363736,Sports Club
place_347,CDD Br CDD,Rio de Janeiro,BR,-22.947604,-43.359762,Skate Park
place_348,Campo do Ap da Pm,Rio de Janeiro,BR,-22.943673,-43.360043,Soccer Field
place_349,Academia,Rio de Janeiro,BR,-22.962869,-43.359252,Gym and Studio
place_35,The Place Health Club,Rio de Janeiro,BR,-23.015452,-43.477325,Gym and Studio
place_350,Summer Academia de Ginástica,Rio de Janeiro,BR,-22.919112,-43.367605,Gym and Studio
place_351,Academia Energia,Rio de Janeiro,BR,-22.950757,-43.355196,Gym and Studio
place_352,Academia VC Fitness,Rio de Janeiro,BR,-22.948067,-43.352685,Gym and Studio
place_353,Academia do Ponto Fitness,Rio de Janeiro,BR,-22.95835,-43.352745,Gym and Studio
place_354,Academia delta,Rio de Janeiro,BR,-22.918321,-43.366331,Gym and Studio
place_355,Academia Corpo e Agua Tirol,Rio de Janeiro,BR,-22.939854,-43.338248,Gym and Studio
place_356,Academia Equilíbrio Fitness,Rio de Janeiro,BR,-22.94879,-43.336519,Gym and Studio
place_357,Fourfit Academia,Rio de Janeiro,BR,-22.937648,-43.332801,Gym and Studio
place_358,Vittoria CrossFit,Rio de Janeiro,BR,-22.93582,-43.338841,Gym and Studio
place_359,Smart Fit,Rio de Janeiro,BR,-22.937387,-43.338189,Gym and Studio
place_36,Novo Rio Country Clube,Rio de Janeiro,BR,-23.015233,-43.477257,Sports and Recreation
place_360,Rio Sport Center,Rio de Janeiro,BR,-22.986363,-43.367159,Education
place_361,Futebol Rio Sport Center,Rio de Janeiro,BR,-22.985856,-43.368464,Soccer Field
place_362,Residencial Fontana di Trevi,Rio de Janeiro,BR,-22.969544,-43.388017,Residential Building
place_363,Smart Fit,Rio de Janeiro,BR,-22.983307,-43.362945,Gym and Studio
place_364,Quadra de Tênis Green Park,Rio de Janeiro,BR,-22.989161,-43.354053,Tennis Court
place_365,Pista de Corrida,Rio de Janeiro,BR,-22.971579,-43.383863,"Education, Track"
place_366,Riosport Barra,Rio de Janeiro,BR,-22.986662,-43.366601,"Education, Gym and Studio"
place_367,Nucleo de Gnastica Olimpica Tatiana Figueiredo,Unknown,BR,-22.930763,-43.325923,Gym and Studio
place_368,Eco Forma,Unknown,BR,-22.951861,-43.325051,Gym and Studio
place_369,Academia,Rio de Janeiro,BR,-22.972251,-43.388584,Gym and Studio
place_37,Gracie Barra Reserva,Rio de Janeiro,BR,-23.021719,-43.462423,Martial Arts Dojo
place_370,CFP9,Rio de Janeiro,BR,-22.992752,-43.362169,Gym and Studio
place_371,Academia Verano,Rio de Janeiro,BR,-22.969739,-43.386579,Gym and Studio
place_372,Quadra de tênis do Eldorado,Rio de Janeiro,BR,-22.941852,-43.325437,Tennis Court
place_373,Empreendimento Del Sole,Rio de Janeiro,BR,-22.934402,-43.328457,"Gym and Studio, Lodging"
place_374,Curves,Rio de Janeiro,BR,-22.971448,-43.385303,Climbing Gym
place_375,Sala de Yoga,Rio de Janeiro,BR,-22.969416,-43.386822,Yoga Studio
place_376,Gracie Barra Rio 2,Unknown,BR,-22.970545,-43.387226,Sports and Recreation
place_377,Quadra de Areia - Verano Residence Park,Rio de Janeiro,BR,-22.969514,-43.387954,Volleyball Court
place_378,ACP PaintBall,Unknown,BR,-22.926225,-43.313708,Paintball Field
place_379,Piscina - Aquarela,Unknown,BR,-22.99192,-43.34747,Swimming Pool
place_38,Lúmini Espaço Art,Rio de Janeiro,BR,-23.016739,-43.466693,Theater
place_380,Quadra de Tênis,Rio de Janeiro,BR,-22.971985,-43.38908,Tennis Court
place_381,Quadra de Tênis,Rio de Janeiro,BR,-22.969863,-43.392917,Tennis Court
place_382,Pista de treino para motos,Unknown,BR,-22.973548,-43.391062,Race Track
place_383,Beer Sport Pub,Rio de Janeiro,BR,-22.927239,-43.359145,Pub
place_384,Bartô Bar Galático,Rio de Janeiro,BR,-22.953345,-43.337821,Sports Bar
place_385,Celeiro Urbano,Rio de Janeiro,BR,-22.940701,-43.362481,Sports Bar
place_386,Life Up Fitness,Rio de Janeiro,BR,-22.918772,-43.265669,Gym and Studio
place_387,Academia de Ginastica Dna Ltda,Rio de Janeiro,BR,-22.923864,-43.26071,Gym and Studio
place_388,Aquidabola Futebol Society,Rio de Janeiro,BR,-22.909758,-43.290982,Soccer Field
place_389,Escola Celeiro de Luta,Rio de Janeiro,BR,-22.939033,-43.33942,Martial Arts Dojo
place_39,Smart Fit,Rio de Janeiro,BR,-23.019164,-43.482936,Gym and Studio
place_390,Team Nogueira Freguesia (Team Nogueira),Rio de Janeiro,BR,-22.94284,-43.340327,Martial Arts Dojo
place_391,Academia Evidence,Rio de Janeiro,BR,-22.924576,-43.263926,Pilates Studio
place_392,Academia Beth Booph,Rio de Janeiro,BR,-22.94863,-43.336578,Dance Studio
place_393,Circuito Uruçanga de Corrida,Rio de Janeiro,BR,-22.94963,-43.330768,Track
place_394,ProQuality Fitness Center,Rio de Janeiro,BR,-22.90687,-43.292543,Gym and Studio
place_395,Academia Saúde e Performance,Rio de Janeiro,BR,-22.951709,-43.338722,Gym and Studio
place_396,Academia Espaço Olímpico,Rio de Janeiro,BR,-22.9395,-43.342254,Gym and Studio
place_397,Academia das Artes,Rio de Janeiro,BR,-22.953541,-43.346419,Dance Studio
place_398,Unicenter - Kairos Fisioterapia,Rio de Janeiro,BR,-22.94223,-43.341944,"Physical Therapy Clinic, Gym and Studio"
place_399,Grajaú Country Club,Rio de Janeiro,BR,-22.92186,-43.267562,Gym and Studio
place_4,Academia Life,Rio de Janeiro,BR,-23.001653,-43.635678,Gym and Studio
place_40,Largada Maratona do Rio de Janeiro,Unknown,BR,-23.030773,-43.470484,Sports and Recreation
place_400,Max Fit,Rio de Janeiro,BR,-22.909896,-43.284148,Gym and Studio
place_401,El Shaddai Bicicletaria,Rio de Janeiro,BR,-22.952866,-43.337997,Bicycle Store
place_402,Espaço Saúde Dimensione Danza,Rio de Janeiro,BR,-22.927327,-43.332928,"Education, Dance Studio"
place_403,Academia HNMD,Unknown,BR,-22.914026,-43.284812,Gym and Studio
place_404,Academia Sindicato do Corpo,Rio de Janeiro,BR,-22.911149,-43.28468,Gym and Studio
place_405,Academia Marinho,Rio de Janeiro,BR,-22.909453,-43.287964,Gym and Studio
place_406,88º Grupo Escoteiro Atol das Rocas/RJ,Rio de Janeiro,BR,-22.909601,-43.287089,"Non-Profit Organization, Recreation Center"
place_407,Tzara Luz do Oriente,Rio de Janeiro,BR,-22.908931,-43.288579,Dance Studio
place_408,Quadra do Faria Brito,Rio de Janeiro,BR,-22.909314,-43.284636,Soccer Field
place_409,Academia Top 3 Gym Center,Rio de Janeiro,BR,-22.908015,-43.288494,Sports and Recreation
place_41,La Danse Arte & Cia,Rio de Janeiro,BR,-23.016548,-43.459412,Dance Studio
place_410,Bujinkan Dojo,Unknown,BR,-22.927329,-43.340455,Martial Arts Dojo
place_411,Atlas Futsal,Rio de Janeiro,BR,-22.907859,-43.28711,Soccer Field
place_412,Bar da Reserva,Rio de Janeiro,BR,-22.925202,-43.265509,Sports Bar
place_413,Futebol do Batista,Rio de Janeiro,BR,-22.931941,-43.235938,Soccer Field
place_414,Petite Dance,Rio de Janeiro,BR,-22.933964,-43.239938,Dance Studio
place_415,A & M Academia Água e Movimento Ltda,Rio de Janeiro,BR,-22.928378,-43.240557,Gym and Studio
place_416,Academia Physical Swim,Rio de Janeiro,BR,-22.933277,-43.239545,Trade School
place_417,Studio Corpore Pilates RJ,Rio de Janeiro,BR,-22.924895,-43.225042,Gym and Studio
place_418,Academia Delfim,Rio de Janeiro,BR,-22.91995,-43.225301,Gym and Studio
place_419,Santa Garrafa Cervejaria,Rio de Janeiro,BR,-22.919171,-43.253321,"Beer Bar, Sports Bar, Restaurant"
place_42,East Coast Fitness,Rio de Janeiro,BR,-23.017329,-43.458553,Gym and Studio
place_420,Maracanãzinho,Rio de Janeiro,BR,-22.913932,-43.229359,Stadium
place_421,Tijuca Tênis Clube,Rio de Janeiro,BR,-22.926805,-43.234999,Sports and Recreation
place_422,Valente CrossFit,Rio de Janeiro,BR,-22.919909,-43.258043,Gym and Studio
place_423,Bodytech,Rio de Janeiro,BR,-22.922463,-43.235209,Gym and Studio
place_424,Smart Fit,Rio de Janeiro,BR,-22.925619,-43.245948,Gym and Studio
place_425,Smart Fit,Rio de Janeiro,BR,-22.920841,-43.219927,Gym and Studio
place_426,Academia Club Six Gym,Rio de Janeiro,BR,-22.915369,-43.219734,Gym and Studio
place_427,Safit,Rio de Janeiro,BR,-22.917246,-43.221974,Gym and Studio
place_428,Academia PURI,Rio de Janeiro,BR,-22.96062,-43.208332,Gym and Studio
place_429,Smart Fit,Rio de Janeiro,BR,-22.916036,-43.248165,Gym and Studio
place_43,Fórmula Academia,Rio de Janeiro,BR,-23.011624,-43.46155,Gym and Studio
place_430,Academia Smart Fit,Rio de Janeiro,BR,-22.924446,-43.233061,Gym and Studio
place_431,Energizer Sports,Rio de Janeiro,BR,-22.925133,-43.225675,Gym and Studio
place_432,Lagoinha Tênis Clube,Rio de Janeiro,BR,-22.938851,-43.210823,Tennis Court
place_433,Montanha Clube,Rio de Janeiro,BR,-22.949941,-43.259516,Sports and Recreation
place_434,Egberto Caldas Tennis Team,Rio de Janeiro,BR,-22.936125,-43.208374,"Shoe Store, Gym and Studio"
place_435,Hercu's Gym Academia,Rio de Janeiro,BR,-22.94625,-43.255162,Gym and Studio
place_436,Jacarépaguá Paintball,Rio de Janeiro,BR,-22.945912,-43.257349,Paintball Field
place_437,Paintball Kids,Rio de Janeiro,BR,-22.945912,-43.257349,Paintball Field
place_438,Gurilandia Club Infantil,Rio de Janeiro,BR,-22.951541,-43.195129,Recreation Center
place_439,Top Defense / Federação Sul-americana de Krav Maga,Rio de Janeiro,BR,-22.952418,-43.190257,Martial Arts Dojo
place_44,Academia Vargem Fitness,Rio de Janeiro,BR,-22.982063,-43.463654,Gym and Studio
place_440,Quadra da Cardoso,Unknown,BR,-22.938074,-43.18797,"Retail, Soccer Field"
place_441,Escola de Dança e Centro Cultural Jaime Arôxa,Rio de Janeiro,BR,-22.954717,-43.181529,Dance Studio
place_442,Academia Exata,Rio de Janeiro,BR,-22.935143,-43.190096,Gym and Studio
place_443,Bodytech,Rio de Janeiro,BR,-22.956561,-43.177245,Gym and Studio
place_444,Pista de Corrida Aterro do Flamengo,Rio de Janeiro,BR,-22.93524,-43.174227,Track
place_445,Academia Upper,Rio de Janeiro,BR,-22.93649,-43.177519,Gym and Studio
place_446,Loja Oficial do Botafogo,Rio de Janeiro,BR,-22.954561,-43.177511,"Landmarks and Outdoors, Fashion Retail, Sporting Goods Retail, Sports Club"
place_447,Bar e Sinuca da Bambina,Rio de Janeiro,BR,-22.948319,-43.185705,"Pool Hall, Sports Bar"
place_448,Gift Club,Rio de Janeiro,BR,-22.91523,-43.186233,Gym and Studio
place_449,Academia Wonder Fit,Rio de Janeiro,BR,-22.927904,-43.175244,Gym and Studio
place_45,Ninho do Urubu,Rio de Janeiro,BR,-22.98379,-43.504342,Soccer Field
place_450,Centro de Movimento Deborah Colker,Rio de Janeiro,BR,-22.920558,-43.177955,Dance Studio
place_451,Academia Max Forma,Rio de Janeiro,BR,-22.939873,-43.17898,Trade School
place_452,Série Delta,Rio de Janeiro,BR,-22.936563,-43.173192,Track
place_453,Smart Fit,Rio de Janeiro,BR,-22.914366,-43.185335,Gym and Studio
place_454,Smart Fit,Rio de Janeiro,BR,-22.947964,-43.18601,Gym and Studio
place_455,Academia Body Up,Rio de Janeiro,BR,-22.914565,-43.184963,Gym and Studio
place_456,Clube Naval Charitas,Niterói,BR,-22.935582,-43.106735,Sports and Recreation
place_457,Circuito da Praia,Unknown,BR,-22.93295,-43.17204,Gym and Studio
place_458,Asmahan - Escola de Artes Orientais,Rio de Janeiro,BR,-22.911982,-43.175178,"Education, Dance Studio"
place_459,Formula da Agua Fitness Center Academia Ltda-me,Rio de Janeiro,BR,-22.967589,-43.190996,Gym and Studio
place_46,Academia Cond. Res. Life,Rio de Janeiro,BR,-23.008591,-43.484623,Gym and Studio
place_460,Cachanga do Malandro,Rio de Janeiro,BR,-22.916707,-43.177486,Education
place_461,Botafogo de Futebol e Regatas,Rio de Janeiro,BR,-22.954678,-43.17789,Sports Club
place_462,Circuito Vênus,Rio de Janeiro,BR,-22.91467,-43.173988,Track
place_463,Bluefit,Rio de Janeiro,BR,-22.934258,-43.175584,Gym and Studio
place_464,Circuito Athenas,Rio de Janeiro,BR,-22.916276,-43.17434,Track
place_465,Smart Fit,Rio de Janeiro,BR,-22.931685,-43.178596,Gym and Studio
place_466,Clube Santa Luzia,Rio de Janeiro,BR,-22.914007,-43.16864,Event Space
place_467,Bar Ernesto,Rio de Janeiro,BR,-22.914601,-43.178189,Sports Bar
place_468,Bar dos Guerreiros,Rio de Janeiro,BR,-22.936375,-43.184919,"Sports Bar, Restaurant"
place_469,Bar do Tênis,Rio de Janeiro,BR,-22.937273,-43.185755,Sports Bar
place_47,Sauna & Spa,Rio de Janeiro,BR,-23.004194,-43.484704,Health and Beauty Service
place_470,Pizzaria e Lanchonete Opção Farani,Rio de Janeiro,BR,-22.941687,-43.181219,"Sports Bar, Steakhouse"
place_471,Nocaute Fight Bar,Rio de Janeiro,BR,-22.950989,-43.176045,Sports Bar
place_472,Caneco 85,Rio de Janeiro,BR,-22.934261,-43.180728,"Dive Bar, Restaurant"
place_473,Praia Clube São Francisco,Niterói,BR,-22.914266,-43.097823,Sports Club
place_474,Niterói Swim,Niterói,BR,-22.908814,-43.10886,Gym and Studio
place_475,AABB Piratininga,Niterói,BR,-22.935122,-43.079184,Gym and Studio
place_476,Pista de Skate,Niterói,BR,-22.914973,-43.094703,Skate Park
place_477,Rio Sailing Clube,Niterói,BR,-22.914242,-43.102904,Sports Club
place_478,Tio Sam Gym Center,Niterói,BR,-22.952773,-43.057895,Gym and Studio
place_479,Gladius Arena,Niterói,BR,-22.939417,-43.059273,Sports and Recreation
place_48,Igui,Rio de Janeiro,BR,-23.019274,-43.504203,Swimming Pool
place_480,Clube Naval Charitas - Quadras de Tênis,Unknown,BR,-22.936655,-43.108203,Tennis Court
place_481,Skatepark Carlos Alberto Parizzi,Niterói,BR,-22.914588,-43.096263,Skate Park
place_482,Charitas Aero Clube,Niterói,BR,-22.923567,-43.094092,Soccer Field
place_483,Stimulus Academia,Niterói,BR,-22.914304,-43.084086,Gym and Studio
place_484,By Fit,Niterói,BR,-22.939318,-43.059459,Gym and Studio
place_485,Health Fitness Club,Niterói,BR,-22.917344,-43.082715,Gym and Studio
place_486,Bodytech São Francisco,Niterói,BR,-22.920242,-43.091441,Gym and Studio
place_487,Capoeira Brasil,Niterói,BR,-22.920009,-43.090557,Martial Arts Dojo
place_488,Niteroi Hoe,Niterói,BR,-22.928214,-43.095707,Sports and Recreation
place_489,Cicle Ayala,Niterói,BR,-22.93344,-43.067224,Bicycle Store
place_49,Academia The Place,Rio de Janeiro,BR,-22.981454,-43.490799,Gym and Studio
place_490,Crossfit Tróia,Niterói,BR,-22.917397,-43.085853,Sports and Recreation
place_491,Barcellos Sports,Niterói,BR,-22.911191,-43.108728,Bicycle Store
place_492,Circuito Solútio,Unknown,BR,-22.909981,-43.110393,Sports and Recreation
place_493,Parque dos Patins,Niterói,BR,-22.934202,-43.115548,"Park, Track"
place_494,Restaurante e Pizzaria Passalini,Niterói,BR,-22.905085,-43.100491,"Sports Bar, Pizzeria"
place_495,Recanto do Almirante,Unknown,BR,-22.9153,-43.104999,Sports Bar
place_496,Bar do meio,Unknown,BR,-22.906324,-43.10165,Sports Bar
place_497,Breezes Itaipu - The One and Only,Unknown,BR,-22.951402,-43.031074,Swimming Pool
place_498,Clube Español,Niterói,BR,-22.943837,-43.04752,"Arts and Entertainment, Social Club, Gym and Studio"
place_499,Body Building,Niterói,BR,-22.945434,-43.033254,Gym and Studio
place_5,Academia Universo do Corpo,Unknown,BR,-23.000919,-43.63359,Gym and Studio
place_50,Companhia Athletica - Absolutto Recreio,Rio de Janeiro,BR,-23.020183,-43.486285,Gym and Studio
place_500,Studio In,Niterói,BR,-22.951662,-43.025308,Yoga Studio
place_501,Academia Essence Fitness,Niterói,BR,-22.931716,-43.018752,Gym and Studio
place_502,Body Fitness,Niterói,BR,-22.905433,-43.0532,"Education, Gym and Studio"
place_503,Cicle Pedalando Pra Valer,Niterói,BR,-22.933972,-43.021126,Bicycle Store
place_504,Campinho do Vale Feliz,Niterói,BR,-22.943793,-43.01521,Soccer Field
place_505,NRC Tennis,Niterói,BR,-22.915667,-43.048799,Tennis Court
place_506,Planeta Criança Parque Clube,Niterói,BR,-22.942484,-43.012983,"Park, Recreation Center"
place_507,Planeta Bola,Unknown,BR,-22.932322,-43.013057,Sporting Goods Retail
place_508,Facebike,Niterói,BR,-22.932395,-43.014,Bicycle Store
place_509,Moove Fitness Club,São Gonçalo,BR,-22.915442,-43.06661,Gym and Studio
place_51,Academia Luau do Recreio,Rio de Janeiro,BR,-23.022304,-43.48985,"Education, Gym and Studio"
place_510,Fly Academia Fitness,Pendotiba,BR,-22.90875,-43.064382,Sports and Recreation
place_511,Arte de Viver,Niterói,BR,-22.906345,-43.05617,Yoga Studio
place_512,Pro Fitness,Unknown,BR,-22.908401,-43.064436,Gym and Studio
place_513,Academia Viva Pendotiba,Unknown,BR,-22.906516,-43.058369,Gym and Studio
place_514,Chacara de Pendotiba Lazer,Unknown,BR,-22.906285,-43.06012,Swimming Pool
place_515,Arena Stella Artois,Unknown,BR,-22.934616,-43.0234,Sports Bar
place_516,CrossFit Niterói,Niterói,BR,-22.941379,-43.040248,Gym and Studio
place_517,Gigio Fitness,Maricá,BR,-22.95776,-42.962148,Gym and Studio
place_518,Academia HalterNativa,Niterói,BR,-22.940306,-43.046935,Gym and Studio
place_519,Academia H&F,Niterói,BR,-22.939965,-43.046613,Gym and Studio
place_52,Bem Me Quero,Rio de Janeiro,BR,-23.022816,-43.489611,Gym and Studio
place_520,Centro Hipico Monte Verde,Unknown,BR,-22.934852,-43.003518,Sports and Recreation
place_521,Universo do Corpo,Maricá,BR,-22.957814,-42.980658,Gym and Studio
place_522,CHECKMAT BJJ - Tonus,Inoã,BR,-22.96091,-42.975335,Martial Arts Dojo
place_523,Vaccari Natação e Fitness,Inoã,BR,-22.966164,-42.976651,Gym and Studio
place_524,Gigio Fitness Mais,Inoã,BR,-22.954915,-42.964842,Gym and Studio
place_525,Guerrillas Paintball,Maricá,BR,-22.945609,-42.962114,Paintball Field
place_526,Sales Fitness,Unknown,BR,-22.963208,-42.963343,Gymnastics Center
place_527,DPA GYM Academia Di'Paola,Itaguaí,BR,-22.871562,-43.777953,Gym and Studio
place_528,Nova Podium Academia,Itaguaí,BR,-22.872619,-43.779797,Gym and Studio
place_529,Body Company Academia,Itaguaí,BR,-22.870579,-43.781439,Gym and Studio
place_53,Piscina,Unknown,BR,-23.026066,-43.498347,Swimming Pool
place_530,Parque Municipal de Itaguaí,Itaguaí,BR,-22.873867,-43.778198,Park
place_531,Academia Mergulhe Nessa,Itaguaí,BR,-22.868436,-43.794678,Gym and Studio
place_532,Academia Corpus,Itaguaí,BR,-22.870092,-43.794343,Gym and Studio
place_533,Academia Ita Life Fitness,Itaguaí,BR,-22.869947,-43.780232,Gym and Studio
place_534,Centro de Treinamento Espartano,Itaguaí,BR,-22.87673,-43.792501,Gym and Studio
place_535,Road Gym Fitnes Center,Itaguaí,BR,-22.877319,-43.816717,Gym and Studio
place_536,Brisa,Itaguaí,BR,-22.873216,-43.807211,Skate Park
place_537,Academia Espaço Zen,Itaguaí,BR,-22.876066,-43.815119,Gymnastics Center
place_538,Power Boat,Itaguaí,BR,-22.878643,-43.820324,Fishing Store
place_539,ProFit,Itaguaí,BR,-22.872241,-43.788816,Gym and Studio
place_54,Espaço Fitness - Aloha Club Residence,Rio de Janeiro,BR,-23.025046,-43.487721,Gym and Studio
place_540,R21 Centro de Treinamento Funcional,Itaguaí,BR,-22.873744,-43.778069,Gym and Studio
place_541,Nilton TKD Dojô,Itaguaí,BR,-22.86739,-43.792458,Martial Arts Dojo
place_542,EcoMar,Itaguaí,BR,-22.870422,-43.781373,Sporting Goods Retail
place_543,Academia 4 Estações,Itaguaí,BR,-22.875485,-43.773535,Gymnastics Center
place_544,Kadinho Sports,Itaguaí,BR,-22.871831,-43.776266,Sporting Goods Retail
place_545,Mundo do Ventilador,Itaguaí,BR,-22.874463,-43.772695,Ski Store
place_546,Showball,Itaguaí,BR,-22.888507,-43.839942,Soccer Field
place_547,Academia Vida Ativa,Itaguaí,BR,-22.876486,-43.769422,Gym and Studio
place_548,Different Suplementos & Naturais,Itaguaí,BR,-22.869078,-43.777327,Sporting Goods Retail
place_549,Quadra Municipal,Itaguaí,BR,-22.867137,-43.778784,Sports and Recreation
place_55,Sitio Quinta da Fonte,Rio de Janeiro,BR,-22.976361,-43.460317,Swimming Pool
place_550,Leleka Materiais Esportivos,Itaguaí,BR,-22.872914,-43.770337,Sporting Goods Retail
place_551,Academia do Pedrão,Itaguaí,BR,-22.878042,-43.765824,Gym and Studio
place_552,Academia ALM Combat Muay Thai Tradicional,Itaguaí,BR,-22.871967,-43.771379,Martial Arts Dojo
place_553,Trivela Showbol,Itaguaí,BR,-22.878393,-43.764579,Soccer Field
place_554,Camp Nou,Itaguaí,BR,-22.894996,-43.843364,Soccer Field
place_555,Showbol Bicão,Itaguaí,BR,-22.889866,-43.842296,Soccer Field
place_556,Camp Nou de Vila,Itaguaí,BR,-22.896867,-43.845479,Soccer Field
place_557,Espaço de Dança Danielle Valois,Itaguaí,BR,-22.872513,-43.765374,"Education, Dance Studio"
place_558,Academia Transforme,Itaguaí,BR,-22.898807,-43.84628,Gym and Studio
place_559,Alojamento Claudio FC,Itaguaí,BR,-22.874499,-43.762288,Sports Club
place_56,Bumblebeer Ponto Cervejeiro,Rio de Janeiro,BR,-23.024556,-43.484698,Beer Bar
place_560,Cpx do Sapinho,Itaguaí,BR,-22.874504,-43.760971,Gun Range
place_561,Campo da Zona Indústria,Rio de Janeiro,BR,-22.892672,-43.742861,"Factory, Soccer Field"
place_562,Fisico & Forma,Itaguaí,BR,-22.866923,-43.74768,Sporting Goods Retail
place_563,Pista de Motocross Holiday,Itaguaí,BR,-22.867611,-43.742242,Sports and Recreation
place_564,Escolinha Fla Itaguaí,Rio de Janeiro,BR,-22.866977,-43.765174,Sports and Recreation
place_565,Academia H2O Fitness,Itaguaí,BR,-22.864252,-43.761784,Gym and Studio
place_566,Itaguai Bunka Clube,Itaguaí,BR,-22.862429,-43.740672,Recreation Center
place_567,Academia Kadosh,Itaguaí,BR,-22.862833,-43.770714,Gym and Studio
place_568,Casa Santo Antônio,Itaguaí,BR,-22.858555,-43.759386,Retail
place_569,Líder Fitness,Itaguaí,BR,-22.858077,-43.757179,Gymnastics Center
place_57,R21 Bar & Restaurante,Rio de Janeiro,BR,-23.014512,-43.463565,"Sports Bar, Brazilian Restaurant"
place_570,Cidade das Crianças,Rio de Janeiro,BR,-22.894819,-43.67952,Playground
place_571,Academia Nova Forma,Rio de Janeiro,BR,-22.917266,-43.685215,Gym and Studio
place_572,Academia Body Action,Belo Horizonte,BR,-22.886882,-43.640572,Gym and Studio
place_573,Bad Dog Gym Jesuítas,Unknown,BR,-22.88938,-43.668789,Gymnastics Center
place_574,Fazenda Arpoador,Unknown,BR,-22.881535,-43.634546,Swimming Pool
place_575,Salão de Festa Craque não Entra,Unknown,BR,-22.884398,-43.628158,Soccer Field
place_576,Academia Shark Fitness RJ,Unknown,BR,-22.909727,-43.623386,Gym and Studio
place_577,Power Core Training - Treinamento Funcional,Rio de Janeiro,BR,-22.91023,-43.623524,Gymnastics Center
place_578,Ciclovia de Inhoaíba,Unknown,BR,-22.911932,-43.622625,Sports and Recreation
place_579,Ciclovia de Cosmos,Unknown,BR,-22.911726,-43.620864,Sports and Recreation
place_58,Chopp Zig Zag pika grossa,Rio de Janeiro,BR,-22.984762,-43.45958,Sports Bar
place_580,Kosmos Atletico Social,Rio de Janeiro,BR,-22.909253,-43.615097,Event Service
place_581,Bad Dog Gym,Rio de Janeiro,BR,-22.929446,-43.631646,Gym and Studio
place_582,Pilates,Rio de Janeiro,BR,-22.91953,-43.681132,Yoga Studio
place_583,Tompson Brasil,Rio de Janeiro,BR,-22.916538,-43.684068,Sporting Goods Retail
place_584,Bike & Cia,Santa Cruz,BR,-22.920042,-43.682085,Bicycle Store
place_585,Academia Espaço Mulher e Cia,Rio de Janeiro,BR,-22.871597,-43.624897,Gym and Studio
place_586,Campo do Colonial F.C.,Rio de Janeiro,BR,-22.907947,-43.689187,Soccer Field
place_587,Academia Good Shape,Unknown,BR,-22.913516,-43.61194,Gym and Studio
place_588,Escola de Nataçao Camila Melo,Rio de Janeiro,BR,-22.910961,-43.688947,Swim School
place_589,Campo da Associação de Santa Margarida,Unknown,BR,-22.891817,-43.610092,Soccer Field
place_59,Demoli Burguer,Rio de Janeiro,BR,-23.018921,-43.460599,Sports Bar
place_590,Academia Body Soul,Unknown,BR,-22.892333,-43.607345,Gym and Studio
place_591,Art Physical,Unknown,BR,-22.885965,-43.606311,Gym and Studio
place_592,Escola de Dança Claryane,Unknown,BR,-22.913797,-43.606178,Dance Studio
place_593,Academia By Corpus,Rio de Janeiro,BR,-22.905846,-43.697726,Gym and Studio
place_594,Academia Personal Fitness,Unknown,BR,-22.91717,-43.694556,Gym and Studio
place_595,Academia Companhia do Corpo,Unknown,BR,-22.932869,-43.682903,Gym and Studio
place_596,Formas Academia,Rio de Janeiro,BR,-22.887778,-43.601276,Gym and Studio
place_597,Academia Libra CT,Rio de Janeiro,BR,-22.894737,-43.57655,"Education, Gym and Studio"
place_598,MXM Academia,Unknown,BR,-22.880891,-43.588816,Gym and Studio
place_599,Academia Activity,Rio de Janeiro,BR,-22.89095,-43.564166,Gym and Studio
place_6,Academia Impacto Bem Viver,Unknown,BR,-22.982972,-43.647072,"Gym, Arts and Entertainment"
place_60,Bodytech,Rio de Janeiro,BR,-23.004912,-43.436108,"Education, Gym and Studio"
place_600,Academia Marinho,Rio de Janeiro,BR,-22.878765,-43.56274,Gym and Studio
place_601,Academia Activity,Rio de Janeiro,BR,-22.892076,-43.590909,Gym and Studio
place_602,Irafit,Unknown,BR,-22.908968,-43.578341,Gym and Studio
place_603,Max Shopping,Rio de Janeiro,BR,-22.856699,-43.601706,Fireworks Store
place_604,Pista de Skate,Rio de Janeiro,BR,-22.897182,-43.572722,"Plaza, Recreation Center, Skate Park"
place_605,Academia Energym,Rio de Janeiro,BR,-22.894227,-43.569514,Gym and Studio
place_606,Academia Tônus,Rio de Janeiro,BR,-22.899873,-43.572725,Gym and Studio
place_607,Centauro,Rio de Janeiro,BR,-22.884444,-43.557548,Sporting Goods Retail
place_608,Dynamus Academia,Rio de Janeiro,BR,-22.909467,-43.58337,Gym and Studio
place_609,Top Gym Academia,Rio de Janeiro,BR,-22.885676,-43.557641,Gym and Studio
place_61,CEPE RIO - Clube dos Empregados da Petrobras,Rio de Janeiro,BR,-23.014416,-43.432951,"Sports Club, Travel Agency"
place_610,Atlético Clube Diana,Rio de Janeiro,BR,-22.91279,-43.579814,Sports and Recreation
place_611,Centro de Arte e Dança de Campo Grande,Rio de Janeiro,BR,-22.899062,-43.560288,Dance Studio
place_612,Lifefit,Rio de Janeiro,BR,-22.886992,-43.559366,Gym and Studio
place_613,A Nova Bicicleta,Rio de Janeiro,BR,-22.901946,-43.556596,Bicycle Store
place_614,Marrafas Bike,Unknown,BR,-22.903565,-43.556447,Bicycle Store
place_615,World Tennis,Rio de Janeiro,BR,-22.88476,-43.557556,Shoe Store
place_616,Academia Perfect Body,Rio de Janeiro,BR,-22.88488,-43.556618,Gym and Studio
place_617,Boulevard Olimpico Campo Grande,Unknown,BR,-22.915076,-43.555663,Indoor Play Area
place_618,Campo do Gouveia,Unknown,BR,-22.927829,-43.637627,Soccer Field
place_619,Shopping Avenida,Rio de Janeiro,BR,-22.860704,-43.533014,Bar
place_62,XGym Recreio,Rio de Janeiro,BR,-23.0096,-43.44193,Sports and Recreation
place_620,Baiano Bicicletas,Unknown,BR,-22.900416,-43.549786,Bicycle Store
place_621,Toca do Duende,Unknown,BR,-22.90317,-43.548599,Boxing Gym
place_622,Kadinho Sports,Rio de Janeiro,BR,-22.902829,-43.559126,Sporting Goods Retail
place_623,Body Move,Rio de Janeiro,BR,-22.883159,-43.54742,"Education, Gym and Studio"
place_624,Academia Lg1,Unknown,BR,-22.881212,-43.538405,Gym and Studio
place_625,Academia,Unknown,BR,-22.879861,-43.533167,Gym and Studio
place_626,Academia Dukorpo,Rio de Janeiro,BR,-22.890733,-43.521893,Gym and Studio
place_627,Equilíbrio Fitness Academia,Rio de Janeiro,BR,-22.870081,-43.549798,Gym and Studio
place_628,G-18 Futebol Society,Rio de Janeiro,BR,-22.876855,-43.528265,Soccer Field
place_629,Academia Universo Fitness,Rio de Janeiro,BR,-22.86913,-43.561815,Gym and Studio
place_63,Academia Fit Power,Rio de Janeiro,BR,-23.015873,-43.437754,Gym and Studio
place_630,Performance Fitness,Unknown,BR,-22.867264,-43.559324,Gym and Studio
place_631,VO2 fit,Unknown,BR,-22.875214,-43.5244,Gym and Studio
place_632,Espaço Festinha,Rio de Janeiro,BR,-22.874704,-43.52213,Swimming Pool
place_633,Academia República da Posse,Unknown,BR,-22.874804,-43.521944,Gym and Studio
place_634,Piscina e Lazer,Unknown,BR,-22.862703,-43.54134,Swimming Pool
place_635,Sports and Grill,Rio de Janeiro,BR,-22.861226,-43.554097,Baseball Field
place_636,Convexus,Rio de Janeiro,BR,-22.873479,-43.516895,Dance Studio
place_637,Academia Personal Fitness,Rio de Janeiro,BR,-22.881533,-43.49834,"Education, Gym and Studio, Parking"
place_638,Academia Ippon Center,Rio de Janeiro,BR,-22.886098,-43.477441,Gym and Studio
place_639,Smart Fit,Rio de Janeiro,BR,-22.877993,-43.467586,Gym and Studio
place_64,Clube Ginástico Português,Rio de Janeiro,BR,-23.015454,-43.438057,Sports and Recreation
place_640,Academia Perfect Body,Rio de Janeiro,BR,-22.880217,-43.466073,Gym and Studio
place_641,Estética Sport Center,Rio de Janeiro,BR,-22.884647,-43.464989,Gym and Studio
place_642,Perfect Body,Rio de Janeiro,BR,-22.88006,-43.466006,Gym and Studio
place_643,Academia Perfect Body,Rio de Janeiro,BR,-22.884313,-43.469308,Gym and Studio
place_644,Centauro - Acessórios Esportivos,Rio de Janeiro,BR,-22.879398,-43.467119,Sporting Goods Retail
place_645,Academia Body Life,Rio de Janeiro,BR,-22.881352,-43.484601,Gym and Studio
place_646,Campo do Royal,Unknown,BR,-22.896545,-43.486036,Soccer Field
place_647,Academia Segredos do Corpo,Rio de Janeiro,BR,-22.874146,-43.485241,Gym and Studio
place_648,Shabab Academia,Rio de Janeiro,BR,-22.923999,-43.523331,Gym and Studio
place_649,Academia Força e Vida,Unknown,BR,-22.874516,-43.528083,Gym and Studio
place_65,Pavilion 6 (Pavilhão 6),Rio de Janeiro,BR,-22.97979,-43.411788,Event Space
place_650,Academia São Victor,Rio de Janeiro,BR,-22.876463,-43.532332,Gym and Studio
place_651,Studio de Pilates Fabiane Alves,Rio de Janeiro,BR,-22.878436,-43.535578,"Nail Salon, Yoga Studio"
place_652,Academia i9 Fit,Rio de Janeiro,BR,-22.877277,-43.535111,Gymnastics Center
place_653,Academia Equipe R2,Unknown,BR,-22.875724,-43.535136,Gymnastics Center
place_654,Rancho Mineiro,Limeira,BR,-22.859749,-43.507843,Restaurant
place_655,Campo do Pará,Unknown,BR,-22.921809,-43.539207,Soccer Field
place_656,Academia Fisicoemforma,Rio de Janeiro,BR,-22.858953,-43.484872,Gym and Studio
place_657,Gres Unidos da Vila Kennedy,Rio de Janeiro,BR,-22.85553,-43.494697,"Performing Arts Venue, Community Center"
place_658,Centro Esportivo João Paulo I,Unknown,BR,-22.869528,-43.464245,Recreation Center
place_659,King Choperia,Rio de Janeiro,BR,-22.883025,-43.492105,Sports Bar
place_66,Olympic Golf Course (Campo Olímpico de Golfe),Rio de Janeiro,BR,-23.006612,-43.405474,Golf Course
place_660,Academia Corpo & Cia,Rio de Janeiro,BR,-22.882956,-43.419917,Gym and Studio
place_661,Academia M. Torres,Rio de Janeiro,BR,-22.880792,-43.421558,Gym and Studio
place_662,Praça da Cohab,Rio de Janeiro,BR,-22.883872,-43.427403,Landmarks and Outdoors
place_663,Academia BioFisio,Rio de Janeiro,BR,-22.883378,-43.436798,Gym and Studio
place_664,Equipee Fitness,Rio de Janeiro,BR,-22.878961,-43.42628,Gym and Studio
place_665,Espaço Gym Academia,Rio de Janeiro,BR,-22.874229,-43.418138,Gym and Studio
place_666,Centro Artístico Daniela Marcondes,Rio de Janeiro,BR,-22.876472,-43.429481,Dance Studio
place_667,i9 Beer/i9 Marcas,Unknown,BR,-22.867017,-43.452331,Sports Bar
place_668,Body Life - Academia,Unknown,BR,-22.895226,-43.485628,Gym and Studio
place_669,Resenha do Gol,Rio de Janeiro,BR,-22.87403,-43.42591,Soccer Field
place_67,Smart Fit,Rio de Janeiro,BR,-22.976367,-43.409572,Gym and Studio
place_670,Sítio das Mangueiras,Unknown,BR,-22.900131,-43.489385,"Event Service, Social Club, Swimming Pool"
place_671,Academia Perfect Body - Equipe Nael Pedra Team,Unknown,BR,-22.865897,-43.465035,Martial Arts Dojo
place_672,Academia Perfect Body,Rio de Janeiro,BR,-22.865807,-43.464845,Gym and Studio
place_673,Bad Dog Gym,Rio de Janeiro,BR,-22.864983,-43.44275,Gym and Studio
place_674,Nutrakey,Rio de Janeiro,BR,-22.859514,-43.453404,Sporting Goods Retail
place_675,Academia Cristiane Heitor,Rio de Janeiro,BR,-22.859468,-43.453967,Education
place_676,Daedo Brasil,Rio de Janeiro,BR,-22.878753,-43.412101,Sporting Goods Retail
place_677,Body Way,Rio de Janeiro,BR,-22.873664,-43.485543,Gym and Studio
place_678,Pilates em Foco,Unknown,BR,-22.882652,-43.491845,Gym and Studio
place_679,Campo do Mangueirão,Rio de Janeiro,BR,-22.882745,-43.49191,Soccer Field
place_68,Academia Fort Fit,Recreio dos Bandeirantes,BR,-22.99502,-43.403688,Martial Arts Dojo
place_680,Espaço Fitness,Rio de Janeiro,BR,-22.896301,-43.496629,Gym and Studio
place_681,Quadra do Bombeirinho,Rio de Janeiro,BR,-22.88421,-43.405523,Soccer Field
place_682,Arena dos Amigos,Rio de Janeiro,BR,-22.883961,-43.444903,Soccer Field
place_683,Fred's Bar,Rio de Janeiro,BR,-22.87968,-43.436521,"Beer Garden, Sports Bar"
place_684,Bar do Jabar,Rio de Janeiro,BR,-22.870958,-43.4444,Sports Bar
place_685,Nike Factory Store,Rio de Janeiro,BR,-22.885366,-43.402415,Sporting Goods Retail
place_686,Complexo Olímpico de Deodoro,Rio de Janeiro,BR,-22.861068,-43.402643,Sports and Recreation
place_687,Yancey Performance,Rio de Janeiro,BR,-22.89117,-43.39829,Gym and Studio
place_688,Pista de Corrida da Vila Militar,Rio de Janeiro,BR,-22.869284,-43.40836,Track
place_689,Academia Lopes,Rio de Janeiro,BR,-22.880166,-43.360142,Gym and Studio
place_69,Companhia Athletica - Riserva Uno,Unknown,BR,-23.001606,-43.402154,Gym and Studio
place_690,Academia Minueto,Rio de Janeiro,BR,-22.868145,-43.374654,Gym and Studio
place_691,Smart Fit,Rio de Janeiro,BR,-22.883216,-43.368557,Gym and Studio
place_692,Coga,Rio de Janeiro,BR,-22.878878,-43.376042,Sports and Recreation
place_693,Mergulhe Fundo Centro Esportivo,Rio de Janeiro,BR,-22.898324,-43.353305,Gym and Studio
place_694,Academia Realce,Rio de Janeiro,BR,-22.877359,-43.370988,Education
place_695,Academia Parc Fit,Rio de Janeiro,BR,-22.887008,-43.40258,Gym and Studio
place_696,Bar Pérola de Sulacap,Rio de Janeiro,BR,-22.886064,-43.398606,Sports Bar
place_697,Allfit,Rio de Janeiro,BR,-22.880725,-43.374393,Gym and Studio
place_698,CNTE - Centro Nacional de Tiro Esportivo,Rio de Janeiro,BR,-22.860982,-43.409727,Gun Range
place_699,Art Mania,Rio de Janeiro,BR,-22.881411,-43.359733,Gym and Studio
place_7,Academia Hiper Forma,Unknown,BR,-22.995248,-43.630441,Gym and Studio
place_70,Quadra de Tênis,Rio de Janeiro,BR,-23.004134,-43.484577,Tennis Court
place_700,Círculo Militar de Pólo,Rio de Janeiro,BR,-22.862861,-43.411842,Business and Professional Services
place_701,Vila Olímpica Professor Manoel José Gomes Tubino,Rio de Janeiro,BR,-22.907309,-43.357347,"Playground, Sports and Recreation"
place_702,Academia RCR,Rio de Janeiro,BR,-22.885403,-43.364722,Gym and Studio
place_703,Academia Neon,Rio de Janeiro,BR,-22.879851,-43.437277,Education
place_704,Rioswin Academia,Rio de Janeiro,BR,-22.901748,-43.353136,Gym and Studio
place_705,CTFJERJ - Centro de Treinamento de Judô,Rio de Janeiro,BR,-22.861461,-43.40215,Martial Arts Dojo
place_706,Mania de Malhar Academia,Rio de Janeiro,BR,-22.892577,-43.417642,Gym and Studio
place_707,Academia Corpo & Cia Evolution,Rio de Janeiro,BR,-22.892254,-43.417885,Gym and Studio
place_708,RWC Rio Wellness Center,Rio de Janeiro,BR,-22.905041,-43.356916,Gym and Studio
place_709,Circuito FIT,Rio de Janeiro,BR,-22.930108,-43.393336,Sports Club
place_71,Academia,Rio de Janeiro,BR,-23.00419,-43.484829,Gym and Studio
place_710,Centro de Treinamento de Lutas - Atak,Rio de Janeiro,BR,-22.929849,-43.391072,Martial Arts Dojo
place_711,Escola de Natação Nado Livre,Unknown,BR,-22.88717,-43.366207,Sports and Recreation
place_712,Academia Forma & Bem Estar,Rio de Janeiro,BR,-22.900534,-43.347274,Gym and Studio
place_713,Bar 100 da Bola,Rio de Janeiro,BR,-22.895737,-43.349165,Sports Bar
place_714,Athivação Academia,Rio de Janeiro,BR,-22.878298,-43.356334,"Gym, Arts and Entertainment"
place_715,Skate Park do Parque Madureira,Rio de Janeiro,BR,-22.863952,-43.34495,"Park, Skate Park"
place_716,Academia Fernandes,Rio de Janeiro,BR,-22.924002,-43.349407,Trade School
place_717,Academia Aqua & Cia,Rio de Janeiro,BR,-22.869317,-43.362076,Education
place_718,Facerj Aikido - World Defense,Rio de Janeiro,BR,-22.875601,-43.330052,Martial Arts Dojo
place_719,Academia Damitex,Rio de Janeiro,BR,-22.859483,-43.342522,Gym and Studio
place_72,Rio Water Planet Paintball,Rio de Janeiro,BR,-22.979492,-43.485985,Paintball Field
place_720,MARSICO ACADEMIA e LOJA de SUPLEMENTOS,Rio de Janeiro,BR,-22.896089,-43.309784,Gym and Studio
place_721,Clube Quarto Linhas,Rio de Janeiro,BR,-22.864443,-43.364467,Basketball Court
place_722,Pau Ferro Futebol Clube,Rio de Janeiro,BR,-22.92675,-43.343327,Sports Club
place_723,Studio de Dança Com-passos,Rio de Janeiro,BR,-22.885621,-43.313045,Dance Studio
place_724,Academia Smart Fit,Rio de Janeiro,BR,-22.873441,-43.337903,Gym and Studio
place_725,Rio Body Club,Rio de Janeiro,BR,-22.903975,-43.303325,Gym and Studio
place_726,Academia Fórmula Madureira,Rio de Janeiro,BR,-22.870399,-43.340464,Gym and Studio
place_727,Academia Body Factory,Rio de Janeiro,BR,-22.861483,-43.329713,Trade School
place_728,Madureira Esporte Clube,Rio de Janeiro,BR,-22.869645,-43.337686,Sports and Recreation
place_729,Fórmula Academia,Unknown,BR,-22.867644,-43.34046,Gymnastics Center
place_73,Academia - La Vista,Rio de Janeiro,BR,-23.021763,-43.486324,Gym and Studio
place_730,Academia Feel Fit,Unknown,BR,-22.865334,-43.349185,Gym and Studio
place_731,Tatu Skate Park,Rio de Janeiro,BR,-22.864984,-43.344222,Skate Park
place_732,Beto Motos,Unknown,BR,-22.877112,-43.318987,Retail
place_733,Campo do Cajuiero,Unknown,BR,-22.866085,-43.334402,Soccer Field
place_734,Point do Corpo,Rio de Janeiro,BR,-22.875887,-43.313501,Gym and Studio
place_735,Academia Ação e Reação,Rio de Janeiro,BR,-22.868764,-43.319727,Education
place_736,Academia Marques Gym,Rio de Janeiro,BR,-22.902768,-43.297087,Gym and Studio
place_737,Activa Fitness,Rio de Janeiro,BR,-22.904598,-43.288412,Gym and Studio
place_738,Balleto Escola de Dança,Rio de Janeiro,BR,-22.902886,-43.288496,Dance Studio
place_739,Bodytech Meier,Rio de Janeiro,BR,-22.905444,-43.288746,Gym and Studio
place_74,Espaço Rubro Negro,Rio de Janeiro,BR,-23.021056,-43.488,Sporting Goods Retail
place_740,Bodytech,Rio de Janeiro,BR,-22.886767,-43.280896,Gym and Studio
place_741,Academia Arena Persnal Fitness,Rio de Janeiro,BR,-22.902294,-43.281708,Gym and Studio
place_742,Prorrogacao e Etc,Rio de Janeiro,BR,-22.891869,-43.267909,"Beer Bar, Sports Bar, Restaurant"
place_743,Nike Factory Store,Rio de Janeiro,BR,-22.879195,-43.270742,Sporting Goods Retail
place_744,Clube dos Suboficiais e Sargentos da Aeronáutica,Rio de Janeiro,BR,-22.882674,-43.334676,Gym and Studio
place_745,Aps Academia de Ginastica,Rio de Janeiro,BR,-22.901986,-43.347434,Business and Professional Services
place_746,Falcao Skate,Unknown,BR,-22.87721,-43.334105,Sporting Goods Retail
place_747,Academia Aqua Gym,Unknown,BR,-22.902182,-43.251534,Gym and Studio
place_748,Saúde Vital Academia,Rio de Janeiro,BR,-22.890169,-43.345205,Gym and Studio
place_749,Academia Aton,Rio de Janeiro,BR,-22.900534,-43.347274,Gym and Studio
place_75,Academia do Up Life,Rio de Janeiro,BR,-23.021794,-43.487579,Gym and Studio
place_750,Toque de Classe - Escolinha de Futebol,Rio de Janeiro,BR,-22.931783,-43.333224,Gym and Studio
place_751,Academia AtivaFit,Rio de Janeiro,BR,-22.900627,-43.347339,Gym and Studio
place_752,Ski JPA,Unknown,BR,-22.888055,-43.346158,Ski Resort and Area
place_753,Queiroz Tennis Club,Rio de Janeiro,BR,-22.931783,-43.333224,Tennis Court
place_754,Fit N Nutrition,Rio de Janeiro,BR,-22.922914,-43.341039,Nutritionist
place_755,Academia Motor Dez,Rio de Janeiro,BR,-22.90179,-43.252027,Gym and Studio
place_756,Restorante Brasa Club Carioca,Rio de Janeiro,BR,-22.899572,-43.295755,"Sports Bar, Restaurant"
place_757,Pub do Yaw,Unknown,BR,-22.890857,-43.28965,Sports Bar
place_758,Clube Magnatas,Rio de Janeiro,BR,-22.899111,-43.251524,Sports Club
place_759,Esconderijo Bar,Rio de Janeiro,BR,-22.920122,-43.260997,"Beer Bar, Sports Bar, Restaurant"
place_76,Saúde e Forma Pilates,Rio de Janeiro,BR,-23.021269,-43.488319,Pilates Studio
place_760,Camarote do Engenhão,Rio de Janeiro,BR,-22.892557,-43.28875,Sports Bar
place_761,Chopperia Mangueirinha,Rio de Janeiro,BR,-22.891806,-43.294816,"Sports Bar, Brewery"
place_762,Flu,Unknown,BR,-22.885147,-43.291332,Sports Bar
place_763,Sinuca,Unknown,BR,-22.873992,-43.265976,"Pool Hall, Sports Bar"
place_764,Machado 61,Rio de Janeiro,BR,-22.895167,-43.346643,Sports Bar
place_765,Espetto do Méier,Rio de Janeiro,BR,-22.900957,-43.279418,Sports Bar
place_766,Otero Fitness,Rio de Janeiro,BR,-22.899125,-43.252214,Gym and Studio
place_767,Gigante da Colina - Megaloja,Rio de Janeiro,BR,-22.891787,-43.228579,Sporting Goods Retail
place_768,Espaço Fitness,Rio de Janeiro,BR,-22.898891,-43.277173,Gym and Studio
place_769,Team Nogueira Cachambi,Rio de Janeiro,BR,-22.888917,-43.274613,Martial Arts Dojo
place_77,Gracie Barra Vargem Grande,Rio de Janeiro,BR,-22.980592,-43.491092,Martial Arts Dojo
place_770,Academia Exerfit Meier,Rio de Janeiro,BR,-22.892158,-43.281841,Education
place_771,Academia Corpo Fitness,Rio de Janeiro,BR,-22.878212,-43.255351,Gym and Studio
place_772,Paintball Conquista,Rio de Janeiro,BR,-22.902472,-43.243575,Paintball Field
place_773,Smart Fit,Rio de Janeiro,BR,-22.899968,-43.22683,Gym and Studio
place_774,Academia Power Fit,Rio de Janeiro,BR,-22.888914,-43.274738,Gym and Studio
place_775,L.A. Paintball Bonsucesso,Rio de Janeiro,BR,-22.871886,-43.249805,Paintball Field
place_776,Curso de Natação Academia Arte de Nadar,Rio de Janeiro,BR,-22.911199,-43.219383,Education
place_777,São Cristóvão de Futebol e Regatas,Rio de Janeiro,BR,-22.905248,-43.214097,Gym and Studio
place_778,Decathlon,Rio de Janeiro,BR,-22.877967,-43.273033,Sporting Goods Retail
place_779,Academia Gracie Meier Jiu-Jitsu,Rio de Janeiro,BR,-22.904474,-43.297253,Martial Arts Dojo
place_78,Crespi Gym,Rio de Janeiro,BR,-22.99427,-43.497823,"Education, Gym and Studio"
place_780,Vila Olímpica da Mangueira,Rio de Janeiro,BR,-22.903614,-43.24216,Sports and Recreation
place_781,Casa da Vila da Feira e Terras de Santa Maria,Rio de Janeiro,BR,-22.9193,-43.21299,Sports and Recreation
place_782,Academia Bolhão ABN,Rio de Janeiro,BR,-22.897756,-43.293642,Gym and Studio
place_783,Vila Olímpica Mané Garrincha,Rio de Janeiro,BR,-22.880852,-43.226373,Sports and Recreation
place_784,Smart Fit,Rio de Janeiro,BR,-22.912754,-43.204867,Gym and Studio
place_785,Clube de Regatas Vasco da Gama,Rio de Janeiro,BR,-22.890654,-43.228397,Stadium
place_786,Circuito das Estações,Rio de Janeiro,BR,-22.915421,-43.174382,Sports and Recreation
place_787,Mar do Rio,Rio de Janeiro,BR,-22.920076,-43.170353,"Dive Store, Travel and Transportation"
place_788,Academia SESI Fight Sports,Rio de Janeiro,BR,-22.910949,-43.173397,Gym and Studio
place_789,Espaço Sesi Saúde,Rio de Janeiro,BR,-22.910973,-43.173712,Medical Center
place_79,Rio de Janeiro Olympic Park (Parque Olímpico do Rio de Janeiro),Rio de Janeiro,BR,-22.978064,-43.393869,Gym and Studio
place_790,Pista de Skate,Rio de Janeiro,BR,-22.924722,-43.170652,Skate Park
place_791,Campos de Futebol,Rio de Janeiro,BR,-22.925982,-43.17225,"Park, Soccer Field"
place_792,Disney Magic Run,Rio de Janeiro,BR,-22.91599,-43.174396,Sports and Recreation
place_793,Quadras de Tênis Aterro,Rio de Janeiro,BR,-22.933098,-43.1738,"Education, Gym and Studio, Tennis Court"
place_794,Academia Milan Tide,Unknown,BR,-22.869382,-43.212237,Gymnastics Center
place_795,Instituto de Yoga e Terapia Aurora,Rio de Janeiro,BR,-22.926783,-43.174465,Yoga Studio
place_796,Sugar Loathe Derby Zone,Rio de Janeiro,BR,-22.929175,-43.173706,Skating Rink
place_797,Mizuno 10 Miles Series,Rio de Janeiro,BR,-22.934104,-43.174075,Track
place_798,All In Sports Bar,Rio de Janeiro,BR,-22.913059,-43.214472,"Sports Bar, Restaurant"
place_799,Bar do Costa,Rio de Janeiro,BR,-22.913567,-43.24428,"Sports Bar, Snack Place"
place_8,Centro Assistencial Familia Feliz,Unknown,BR,-22.981372,-43.652427,Recreation Center
place_80,Country Club Novo Leblon,Rio de Janeiro,BR,-23.002187,-43.380526,"Stadium, Sports Club"
place_800,Clássicos do Maraca,Rio de Janeiro,BR,-22.915175,-43.232902,"Sports Bar, Cafe, Coffee, and Tea House, Fast Food Restaurant"
place_801,On Tap Pub,Rio de Janeiro,BR,-22.920023,-43.234022,"Sports Bar, Brewery, Restaurant"
place_802,Estácio F.C.,Rio de Janeiro,BR,-22.914133,-43.208037,Sports Bar
place_803,Urubuzada Sede,Rio de Janeiro,BR,-22.912502,-43.213957,Sports Bar
place_804,Barril,Unknown,BR,-22.897498,-43.179726,"Massage Clinic, Sports Bar"
place_805,Bar e Lanchonete dos Esportes,Rio de Janeiro,BR,-22.913859,-43.231051,"Beer Bar, Sports Bar, Brazilian Restaurant"
place_806,Boteco Abençoado,Rio de Janeiro,BR,-22.917119,-43.223288,"Dive Bar, Sports Bar"
place_807,Baixo Lapa,Rio de Janeiro,BR,-22.913983,-43.178864,Other Great Outdoors
place_808,Goose Maiden's Lake,Unknown,BR,-22.919182,-43.233437,Sports Bar
place_809,Futebol Fernao Cardim,Rio de Janeiro,BR,-22.883374,-43.237222,Sports Bar
place_81,Companhia Athletica,Rio de Janeiro,BR,-22.998522,-43.360364,Gym and Studio
place_810,Mercabar da Villa,Rio de Janeiro,BR,-22.91045,-43.241006,Sports Bar
place_811,Bar Aconchego - Marmore,Unknown,BR,-22.914325,-43.240472,Sports Bar
place_812,Barkana,Unknown,BR,-22.9276,-43.23483,Sports Bar
place_813,Smart Fit,Niterói,BR,-22.901339,-43.123675,Gym and Studio
place_814,SM Fitness,Niterói,BR,-22.894882,-43.11957,Gym and Studio
place_815,Mega Sport Center,Niterói,BR,-22.904479,-43.122119,Gym and Studio
place_816,Praia de Boa Viagem,Niterói,BR,-22.908565,-43.130057,Beach
place_817,Ponto de Encontro,Rio de Janeiro,BR,-22.905859,-43.178357,Dance Studio
place_818,Centro de Promoção da Saúde,Rio de Janeiro,BR,-22.909581,-43.178948,Gym and Studio
place_819,Academia BodyClass Fitness,Niterói,BR,-22.894374,-43.123635,Gym and Studio
place_82,Clube Mandala,Rio de Janeiro,BR,-23.006154,-43.373722,"Night Club, Landmarks and Outdoors, Gym and Studio, Sports Club"
place_820,Dança CCC,Rio de Janeiro,BR,-22.906504,-43.181822,Dance Studio
place_821,Centro Cultural Carioca,Rio de Janeiro,BR,-22.906217,-43.181878,Cultural Center
place_822,Decathlon,Unknown,BR,-22.8969,-43.123946,Sporting Goods Retail
place_823,Smart Fit,Niterói,BR,-22.903473,-43.101708,Gym and Studio
place_824,Niterói Swim SVP,Unknown,BR,-22.90378,-43.112881,Gym and Studio
place_825,Smart Fit,Niterói,BR,-22.903265,-43.114562,Gym and Studio
place_826,Flecha CrossFit,Rio de Janeiro,BR,-22.92681,-43.178606,Sports and Recreation
place_827,Espaço Mosaico,Rio de Janeiro,BR,-22.93179,-43.182112,Dance Studio
place_828,Academia Endurance,Rio de Janeiro,BR,-22.92794,-43.177692,Gym and Studio
place_829,Smart Fit,Rio de Janeiro,BR,-22.911949,-43.177875,Gym and Studio
place_83,Alfabarra Clube,Rio de Janeiro,BR,-23.008594,-43.369766,Gym and Studio
place_830,XFusion,Niterói,BR,-22.901064,-43.113883,Gym and Studio
place_831,Academia da Praia,Rio de Janeiro,BR,-22.93875,-43.169104,Outdoor Gym
place_832,Caminhada Km 0,Niterói,BR,-22.903594,-43.135396,Track
place_833,Academia BACS,Rio de Janeiro,BR,-22.875139,-43.1361,Gym and Studio
place_834,Academia BACS,Unknown,BR,-22.872851,-43.136422,Gymnastics Center
place_835,Smart Fit,Niterói,BR,-22.881372,-43.092213,Gym and Studio
place_836,Fonseca Atlético Clube,Niterói,BR,-22.881997,-43.08445,Sports Club
place_837,Academia HalterNativa,Niterói,BR,-22.875123,-43.107371,Gym and Studio
place_838,Tio Sam Gym Center,Niterói,BR,-22.872053,-43.104601,Gym and Studio
place_839,Espaço Saúde : Fisioterapia e Pilates,Niterói,BR,-22.882022,-43.086081,Gym and Studio
place_84,Bodytech,Rio de Janeiro,BR,-22.989052,-43.359633,"Education, Gym and Studio"
place_840,Academia Máxima,Niterói,BR,-22.879906,-43.096632,Gym and Studio
place_841,Tio Sam Esporte Clube Barreto,Niterói,BR,-22.871959,-43.104536,Sports Club
place_842,Academia Power House,Niterói,BR,-22.881541,-43.087701,Trade School
place_843,Alameda,Unknown,BR,-22.881078,-43.096597,Race Track
place_844,Equip Fitness,Unknown,BR,-22.873702,-43.087013,Gym and Studio
place_845,Maluco Doido FC - Barreto Social Clube,Niterói,BR,-22.870407,-43.104562,Soccer Field
place_846,Academia Gold Barreto,Niterói,BR,-22.865662,-43.100247,Gym and Studio
place_847,Complexo do Caramujo,Unknown,BR,-22.883452,-43.066983,Gun Range
place_848,Academia Equipe 7,Niterói,BR,-22.863989,-43.100019,Gym and Studio
place_849,Academia Galvão,Unknown,BR,-22.863028,-43.101815,Gym and Studio
place_85,Academia Bio Ritmo Metropolitano,Rio de Janeiro,BR,-22.970654,-43.372927,Gym and Studio
place_850,Academia do Ventura,Niterói,BR,-22.862951,-43.094286,Gym and Studio
place_851,Escolinha de Futebol Fanáticos,Niterói,BR,-22.861282,-43.101962,"Sports Bar, Soccer Field"
place_852,ProRitmo Pendotiba,Niterói,BR,-22.906822,-43.056118,Gym and Studio
place_853,Trops-Centro de Esporte e Lazer Ltda ME,Niterói,BR,-22.902141,-43.044967,Soccer Field
place_854,Academia Physicos,Barretos,BR,-22.87602,-43.032431,Education
place_855,Academia Elitte,Niterói,BR,-22.907483,-43.098164,Gym and Studio
place_856,War Game Paintball,Niterói,BR,-22.926453,-43.062793,Paintball Field
place_857,HR Fitness Academia,Unknown,BR,-22.879788,-43.018782,Gymnastics Center
place_858,Espaço Lutas & Danças,Niterói,BR,-22.886115,-43.012219,Sports and Recreation
place_859,Life Studio Pilates,Niterói,BR,-22.938141,-43.061062,Pilates Studio
place_86,Nike Store,Rio de Janeiro,BR,-22.998098,-43.357092,Sporting Goods Retail
place_860,Proquality Academia,Niterói,BR,-22.935653,-43.061882,Gym and Studio
place_861,Gym Moove Fitness Club,Niterói,BR,-22.893026,-43.005042,Gym and Studio
place_862,Guarderya,Niterói,BR,-22.915467,-43.0939,Sports and Recreation
place_863,Academia World Fight Center,Unknown,BR,-22.920465,-43.092701,Martial Arts Dojo
place_864,Moove Fitness Club,São Gonçalo,BR,-22.886949,-42.986895,Gym and Studio
place_865,Symbol Fitness Academia,Niterói,BR,-22.899471,-43.041328,Gym and Studio
place_866,Academia Body Evolution,Unknown,BR,-22.890181,-42.995126,Gym and Studio
place_867,Bike Works Pecas e Acessórios,São Gonçalo,BR,-22.902248,-42.985373,Bicycle Store
place_868,Sportmix Academia,São Gonçalo,BR,-22.902344,-42.985312,Gym and Studio
place_869,Rdo Paintball,São Gonçalo,BR,-22.887566,-42.986219,Paintball Field
place_87,Hot Yoga One,Rio de Janeiro,BR,-22.999423,-43.414584,Yoga Studio
place_870,Q Golaço Society,São Gonçalo,BR,-22.884233,-42.98658,Soccer Field
place_871,Alkimia,Niterói,BR,-22.884104,-43.03074,Yoga Studio
place_872,Niterói Racket,Niterói,BR,-22.887275,-43.033324,Sports and Recreation
place_873,Atlético Futebol Clube,Niterói,BR,-22.887616,-43.033646,Soccer Field
place_874,@ Trops,Niterói,BR,-22.866181,-43.00717,Soccer Field
place_875,Campo do Grande,Inoã,BR,-22.926752,-42.974281,Soccer Field
place_876,Academia Arsenal Fitness,Unknown,BR,-22.863297,-43.008608,Gym and Studio
place_877,Academia Gladiador,São Gonçalo,BR,-22.861852,-43.008072,Gym and Studio
place_878,Academia Body Strong,Unknown,BR,-22.862398,-43.010531,Gym and Studio
place_879,L.A Esport's,Unknown,BR,-22.863508,-43.020092,Soccer Field
place_88,Smart Fit,Rio de Janeiro,BR,-22.971713,-43.387317,Gym and Studio
place_880,Academia Espaço Zen,Itaguaí,BR,-22.860174,-43.776354,Gym and Studio
place_881,Campo do Teixeira,Itaguaí,BR,-22.839246,-43.802168,Soccer Field
place_882,Quadra do Texas,Itaguaí,BR,-22.838716,-43.79507,Soccer Field
place_883,Sitio Paraíso Verde,Itaguaí,BR,-22.843828,-43.811623,Swimming Pool
place_884,Campo Society Laia,Itaguaí,BR,-22.859422,-43.778342,Soccer Field
place_885,Montanha do Oeste,Itaguaí,BR,-22.870131,-43.777039,"Climbing Gym, Tourist Information and Service, Travel Agency"
place_886,New Fitness,Itaguaí,BR,-22.87233,-43.77653,Gym and Studio
place_887,Fitness Center,Seropédica,BR,-22.840948,-43.719012,Sports and Recreation
place_888,Campinho do Pira,Seropédica,BR,-22.837341,-43.71654,Soccer Field
place_889,Academia American Life Fitness,Seropédica,BR,-22.837569,-43.713975,Gym and Studio
place_89,Life Bike Sport,Rio de Janeiro,BR,-22.965336,-43.386786,Bicycle Store
place_890,Casa Santo Antônio,Nova Iguaçu,BR,-22.855425,-43.609075,Fireworks Store
place_891,Campo do Gremio,Nova Iguaçu,BR,-22.831648,-43.608555,Soccer Field
place_892,Academia Studio 1 Fitness,Nova Iguaçu,BR,-22.8548,-43.604043,Gym and Studio
place_893,Academia Imagem,Nova Iguaçu,BR,-22.853527,-43.60188,Gym and Studio
place_894,Casa Santo Antônio Fogos e Armas,Rio de Janeiro,BR,-22.818283,-43.59644,Sporting Goods Retail
place_895,Clube Robgool,Nova Iguaçu,BR,-22.813397,-43.612058,Swimming Pool
place_896,Academia Leão Branco,Nova Iguaçu,BR,-22.80965,-43.612343,Gym and Studio
place_897,Cutback Sports,Rio de Janeiro,BR,-22.861319,-43.554162,Basketball Court
place_898,Sitio Agape,Rio de Janeiro,BR,-22.84454,-43.568175,Indoor Play Area
place_899,Pesque-Pague,Rio de Janeiro,BR,-22.860486,-43.525671,Landmarks and Outdoors
place_9,Vila Olimpica da Pedra,Unknown,BR,-22.994691,-43.625284,Sports and Recreation
place_90,Adidas,Rio de Janeiro,BR,-22.997057,-43.359513,Business and Professional Services
place_900,Cantinho da Porrada,Rio de Janeiro,BR,-22.845346,-43.52317,Martial Arts Dojo
place_901,Academia Ação do Corpo,Rio de Janeiro,BR,-22.880194,-43.544589,Gym and Studio
place_902,Dojo Power,Rio de Janeiro,BR,-22.88797,-43.553495,Martial Arts Dojo
place_903,Academia Discipulos,Unknown,BR,-22.86799,-43.512434,Gym and Studio
place_904,Academia Athletica Fitness,Rio de Janeiro,BR,-22.869995,-43.509661,Gymnastics Center
place_905,Academia R&J Fitness,Rio de Janeiro,BR,-22.869468,-43.509209,Gym and Studio
place_906,Complexo do Grão Pará,Nova Iguaçu,BR,-22.825327,-43.588962,Gun Range
place_907,Bomb Squad Paintball,Unknown,BR,-22.863002,-43.503345,Paintball Field
place_908,Bad Dog Gym,Rio de Janeiro,BR,-22.84881,-43.465561,Gym and Studio
place_909,Vila Olímpica Jornalista Ary de Carvalho,Rio de Janeiro,BR,-22.851003,-43.49095,Sports and Recreation
place_91,Quadra de Tênis Cidade Jardim,Rio de Janeiro,BR,-22.966067,-43.385424,Tennis Court
place_910,Academia L&D Fisíco e Forma,Unknown,BR,-22.854038,-43.489957,Gym and Studio
place_911,Academia NutrisPort,Rio de Janeiro,BR,-22.85057,-43.486863,"Gym and Studio, Arts and Entertainment"
place_912,Espaço Peixe,Unknown,BR,-22.852782,-43.484659,Swimming Pool
place_913,Academia Shopping do Corpo,Unknown,BR,-22.872106,-43.48331,Gym and Studio
place_914,Campo do Panelão,Rio de Janeiro,BR,-22.845604,-43.465797,Soccer Field
place_915,Academia i9 Fitness,Rio de Janeiro,BR,-22.845597,-43.464856,Gym and Studio
place_916,BG Fit Academia,Rio de Janeiro,BR,-22.853093,-43.457951,Gym and Studio
place_917,WQSurf,Rio de Janeiro,BR,-22.878239,-43.467843,Sporting Goods Retail
place_918,Orelha Bike,Rio de Janeiro,BR,-22.886122,-43.478947,Bicycle Store
place_919,Academia Top Fitness,Unknown,BR,-22.886382,-43.478703,Gymnastics Center
place_92,Centro Cultural e Esportivo Israelita Adolpho Bloch,Rio de Janeiro,BR,-23.010621,-43.430475,Sports and Recreation
place_920,Espaço Rubro Negro,Rio de Janeiro,BR,-22.879238,-43.467178,Sporting Goods Retail
place_921,Academia Body Gym,Rio de Janeiro,BR,-22.890154,-43.482181,Gym and Studio
place_922,Crossfit Konoha,Rio de Janeiro,BR,-22.880543,-43.465704,Sports and Recreation
place_923,Academia R3,Olinda,BR,-22.820488,-43.425994,Gymnastics Center
place_924,Radical Park (Parque Radical),Rio de Janeiro,BR,-22.848444,-43.402024,Rafting Outfitter
place_925,P.R.A Fitness,Rio de Janeiro,BR,-22.83355,-43.405866,Gym and Studio
place_926,Academia Body Fitness,Rio de Janeiro,BR,-22.873984,-43.457267,Gym and Studio
place_927,CEZO - Campo do Marcelino,Unknown,BR,-22.880055,-43.453965,Soccer Field
place_928,Woman Estética,Rio de Janeiro,BR,-22.877441,-43.443553,Healthcare Clinic
place_929,Studio Fernanda Gonçalves Dance Fitness,Rio de Janeiro,BR,-22.878733,-43.442581,Dance Studio
place_93,Piscina Reserva Jardim,Rio de Janeiro,BR,-22.96711,-43.384195,Gym and Studio
place_930,Piscina UCB,Rio de Janeiro,BR,-22.883628,-43.44063,Gym and Studio
place_931,Academia W Fitness,Unknown,BR,-22.857136,-43.49505,Gymnastics Center
place_932,Centro Nacional de Hoquei Sobre Grama,Unknown,BR,-22.861308,-43.40315,Hockey Field
place_933,Stilo's bar,Olinda,BR,-22.820479,-43.420162,Sports Bar
place_934,Projeto Quintal do Samba,Unknown,BR,-22.830693,-43.411065,Sports Bar
place_935,Futbar,Nilópolis,BR,-22.812874,-43.426311,Sports Bar
place_936,Depósito do Quarentão,Rio de Janeiro,BR,-22.831327,-43.406063,Sports Bar
place_937,Acqua Fit,Rio de Janeiro,BR,-22.830212,-43.403841,Education
place_938,Olympic BMX Centre (Centro Olímpico de BMX),Rio de Janeiro,BR,-22.846823,-43.400981,Race Track
place_939,Smart Fit,Rio de Janeiro,BR,-22.841773,-43.370255,Gym and Studio
place_94,Academia London Green,Rio de Janeiro,BR,-23.002799,-43.428466,Gym and Studio
place_940,Academia Físico Carioca,Rio de Janeiro,BR,-22.858309,-43.370277,Gym and Studio
place_941,Academia Life Fit,Nilópolis,BR,-22.808837,-43.414362,Gym and Studio
place_942,Academia Cia Saúde,Rio de Janeiro,BR,-22.835246,-43.411426,Gym and Studio
place_943,Life Academia,Rio de Janeiro,BR,-22.83537,-43.377877,Gym and Studio
place_944,Academia R3,Nilópolis,BR,-22.811729,-43.415309,Gym and Studio
place_945,Academia Natalia Fitness,Rio de Janeiro,BR,-22.825926,-43.407877,Gym and Studio
place_946,Smart Fit Nilópolis,Nilópolis,BR,-22.809017,-43.417251,Gym and Studio
place_947,Academia Pureza,Rio de Janeiro,BR,-22.827519,-43.40133,Gym and Studio
place_948,Centauro - Shopping Jardim Guadalupe,Rio de Janeiro,BR,-22.841475,-43.369495,Sporting Goods Retail
place_949,Parque da Vizinhança Dias Gomes,Rio de Janeiro,BR,-22.853432,-43.38402,"Amusement Park, Swimming Pool, Tourist Information and Service"
place_95,Academia DM Fitness,Rio de Janeiro,BR,-22.960028,-43.390233,Gym and Studio
place_950,Espaço Tô na Área,Rio de Janeiro,BR,-22.858816,-43.365272,Soccer Field
place_951,Academia Thalya Fitness,Rio de Janeiro,BR,-22.836491,-43.366114,Martial Arts Dojo
place_952,Sesi Honorio Gurgel,Rio de Janeiro,BR,-22.84185,-43.363421,Gym and Studio
place_953,Equipe Senshu - Judô & Jiu-jitsu,Rio de Janeiro,BR,-22.834463,-43.364873,Martial Arts Dojo
place_954,Bina's Academia,Rio de Janeiro,BR,-22.857828,-43.361736,Gym and Studio
place_955,El Said Estúdio de Dança,Unknown,BR,-22.883617,-43.418804,Dance Studio
place_956,Campo do Barrinho,Rio de Janeiro,BR,-22.858768,-43.359626,Soccer Field
place_957,Campo da Mangueira - Lagartixa,Unknown,BR,-22.824869,-43.367088,Soccer Field
place_958,Academia Equilibrio do Corpo,Rio de Janeiro,BR,-22.884267,-43.421893,Education
place_959,Físico Art,Rio de Janeiro,BR,-22.88358,-43.425201,Gym and Studio
place_96,Academia Reserva Jardim,Rio de Janeiro,BR,-22.96693,-43.383814,Gym and Studio
place_960,Technofit Academia,Rio de Janeiro,BR,-22.839319,-43.324162,Gym and Studio
place_961,Academia Zanco,Rio de Janeiro,BR,-22.830278,-43.308015,Trade School
place_962,Smart Fit,Rio de Janeiro,BR,-22.849577,-43.31174,Gym and Studio
place_963,Centro de Artes Marciais Golden Cage,Rio de Janeiro,BR,-22.845435,-43.312644,"Education, Martial Arts Dojo"
place_964,New Corpore,Rio de Janeiro,BR,-22.841758,-43.317824,Gym and Studio
place_965,Jock Free Academia,Rio de Janeiro,BR,-22.836562,-43.317824,Gym and Studio
place_966,Centro de Dança Alex de Carvalho,Rio de Janeiro,BR,-22.844998,-43.312383,Dance Studio
place_967,Academia Villas Boas Body Shape,Rio de Janeiro,BR,-22.84585,-43.311274,Gym and Studio
place_968,Academia Atitude do Corpo,Rio de Janeiro,BR,-22.835987,-43.309093,Gym and Studio
place_969,Academia Fórmula,Unknown,BR,-22.840164,-43.309319,Gymnastics Center
place_97,Piscina Reserva do Parque,Rio de Janeiro,BR,-22.964951,-43.384519,Swimming Pool
place_970,Jock Free,Rio de Janeiro,BR,-22.836595,-43.317762,Gym and Studio
place_971,ACADEMIA NEW CORPORE - Vista Alegre,Rio de Janeiro,BR,-22.827905,-43.321881,Gym and Studio
place_972,Body Free Academia,Unknown,BR,-22.857069,-43.308533,Gym and Studio
place_973,Academia Body Fit Villas boas,Rio de Janeiro,BR,-22.834206,-43.318269,Gym and Studio
place_974,Pro Sports,Rio de Janeiro,BR,-22.836274,-43.325532,Gym and Studio
place_975,Academia X-Treme Fitness,Rio de Janeiro,BR,-22.851167,-43.31021,Gym and Studio
place_976,Academia Physical,Rio de Janeiro,BR,-22.823554,-43.319707,Gym and Studio
place_977,Irajá Atlético Clube,Rio de Janeiro,BR,-22.850029,-43.325361,"Social Club, Gym and Studio, Sports Club, Tourist Information and Service"
place_978,Campo de Vista Alegre,Unknown,BR,-22.830817,-43.316934,Soccer Field
place_979,Academia JLS,Rio de Janeiro,BR,-22.811367,-43.362122,Gym and Studio
place_98,The Place Health Club,Rio de Janeiro,BR,-23.007446,-43.428516,Gym and Studio
place_980,Academia Performance Vip,Rio de Janeiro,BR,-22.815214,-43.359141,Gym and Studio
place_981,Coliseu Fight,Rio de Janeiro,BR,-22.829892,-43.326068,Martial Arts Dojo
place_982,Academia Top 3,Rio de Janeiro,BR,-22.88352,-43.319831,Gym and Studio
place_983,Academia Vilas Boas,Rio de Janeiro,BR,-22.837209,-43.316021,Gym and Studio
place_984,Academia Corpo Suado,Rio de Janeiro,BR,-22.845197,-43.301851,Gym and Studio
place_985,Centauro,Rio de Janeiro,BR,-22.822752,-43.320127,Sporting Goods Retail
place_986,Academia Caroleo,Rio de Janeiro,BR,-22.880313,-43.322702,"Education, Gym and Studio"
place_987,LCR Sport,Rio de Janeiro,BR,-22.883276,-43.319449,"Restaurant, Soccer Field"
place_988,Academia Jj Fitness,Unknown,BR,-22.825894,-43.351559,Gym and Studio
place_989,Academia Quality Fitness,Rio de Janeiro,BR,-22.84058,-43.305315,Gym and Studio
place_99,Academia Nova Forma,Rio de Janeiro,BR,-22.972344,-43.413489,Gym and Studio
place_990,Planeta da Bola,Rio de Janeiro,BR,-22.831615,-43.307796,Soccer Field
place_991,Academia - Furnas S.A,Rio de Janeiro,BR,-22.817198,-43.320432,Gym and Studio
place_992,Academia Carlinhos J,Rio de Janeiro,BR,-22.814472,-43.323001,Gym and Studio
place_993,Academia Mundo Fitness,Rio de Janeiro,BR,-22.813272,-43.375776,Sports and Recreation
place_994,Campo do César LCR Sport,Rio de Janeiro,BR,-22.883499,-43.319392,Soccer Field
place_995,Martins Ginástica Laboral,Unknown,BR,-22.818402,-43.316635,Gym and Studio
place_996,So Vem! Bar,Rio de Janeiro,BR,-22.854428,-43.32302,"Beer Bar, Sports Bar"
place_997,Jambeiro Snooker Bar,Unknown,BR,-22.880157,-43.370553,"Pool Hall, Bar"
place_998,Casa do Homer - Springfield,Rio de Janeiro,BR,-22.833714,-43.380722,Sports Bar
place_999,Soccer show guadalupe,Rio de Janeiro,BR,-22.836674,-43.383929,"Bar, Soccer Field"
